{"type": "FeatureCollection", "features": [{"type": "Feature", "properties": {"nom": "Bassin versant de la Dr\u00f4me", "surface_km2": 1644.0}, "geometry": {"type": "Polygon", "coordinates": [[[4.78846, 44.76842], [4.79481, 44.76922], [4.80662, 44.76819], [4.81391, 44.77251], [4.84294, 44.77203], [4.84617, 44.76934], [4.85548, 44.76912], [4.85861, 44.76646], [4.86334, 44.76632], [4.86836, 44.7761], [4.88214, 44.78334], [4.88385, 44.78575], [4.89279, 44.7874], [4.90031, 44.78637], [4.90286, 44.77027], [4.90987, 44.76999], [4.92212, 44.7653], [4.93273, 44.76601], [4.93869, 44.76898], [4.94032, 44.77307], [4.94877, 44.77228], [4.9545, 44.78092], [4.96088, 44.78261], [4.96925, 44.78266], [4.97609, 44.78821], [4.97766, 44.79222], [4.98395, 44.79121], [4.99051, 44.78499], [4.99759, 44.78376], [5.00104, 44.78101], [5.01966, 44.78346], [5.02439, 44.79048], [5.02815, 44.79041], [5.03025, 44.78771], [5.03697, 44.78844], [5.04322, 44.78653], [5.04445, 44.78158], [5.04758, 44.78021], [5.06744, 44.77894], [5.06955, 44.78055], [5.07139, 44.79591], [5.0767, 44.80293], [5.0769, 44.80855], [5.07452, 44.81207], [5.07488, 44.82197], [5.07959, 44.82303], [5.08137, 44.82635], [5.09624, 44.8255], [5.09931, 44.83231], [5.10641, 44.83413], [5.10951, 44.83715], [5.10471, 44.84122], [5.10488, 44.84572], [5.11404, 44.85365], [5.11543, 44.84945], [5.12139, 44.8472], [5.11992, 44.84174], [5.12268, 44.83752], [5.13221, 44.83529], [5.13713, 44.83641], [5.13897, 44.84326], [5.14153, 44.84484], [5.14181, 44.85132], [5.14581, 44.85736], [5.14619, 44.86654], [5.15002, 44.86809], [5.15292, 44.87713], [5.15187, 44.88264], [5.15454, 44.8862], [5.16237, 44.89145], [5.17627, 44.89118], [5.17826, 44.8894], [5.18253, 44.88925], [5.18357, 44.88653], [5.18785, 44.88648], [5.19139, 44.88818], [5.19895, 44.88803], [5.20123, 44.88529], [5.20938, 44.88606], [5.21176, 44.89138], [5.215, 44.89146], [5.21693, 44.89397], [5.22854, 44.89915], [5.23729, 44.89627], [5.23968, 44.89262], [5.23936, 44.88443], [5.24263, 44.86878], [5.24562, 44.86558], [5.25126, 44.86536], [5.25359, 44.85775], [5.25737, 44.85534], [5.25979, 44.85708], [5.26556, 44.85712], [5.26753, 44.86053], [5.26986, 44.86088], [5.27162, 44.86765], [5.27556, 44.87189], [5.27574, 44.87567], [5.27814, 44.8761], [5.28378, 44.88631], [5.2875, 44.8885], [5.2984, 44.90313], [5.30101, 44.90487], [5.30603, 44.90387], [5.30756, 44.90048], [5.31095, 44.90016], [5.3123, 44.89506], [5.32078, 44.89275], [5.32197, 44.88689], [5.32804, 44.88449], [5.32854, 44.88284], [5.33691, 44.88431], [5.3432, 44.88328], [5.34282, 44.87419], [5.3452, 44.87062], [5.34501, 44.86613], [5.34237, 44.86276], [5.34203, 44.85538], [5.33533, 44.84579], [5.335, 44.83341], [5.33853, 44.83203], [5.35374, 44.83261], [5.35685, 44.82994], [5.36371, 44.8288], [5.36894, 44.82499], [5.37629, 44.83079], [5.3793, 44.83837], [5.38582, 44.84273], [5.38923, 44.84291], [5.3936, 44.84707], [5.40092, 44.84061], [5.40481, 44.83357], [5.40666, 44.83239], [5.41575, 44.83218], [5.41888, 44.82767], [5.4399, 44.82897], [5.44227, 44.8307], [5.45994, 44.83031], [5.46171, 44.82771], [5.4674, 44.82654], [5.47143, 44.83185], [5.48064, 44.83168], [5.48294, 44.8343], [5.49476, 44.8332], [5.49693, 44.83579], [5.50132, 44.83579], [5.50682, 44.83941], [5.50733, 44.84186], [5.51124, 44.84447], [5.51887, 44.8452], [5.5174, 44.84073], [5.51099, 44.83672], [5.51076, 44.83367], [5.50491, 44.83361], [5.50036, 44.8276], [5.49278, 44.82459], [5.49254, 44.8212], [5.49494, 44.81962], [5.49374, 44.81551], [5.50351, 44.81312], [5.50433, 44.81134], [5.50975, 44.81118], [5.50947, 44.80372], [5.51444, 44.80296], [5.51685, 44.80021], [5.51714, 44.79405], [5.52414, 44.79283], [5.52546, 44.7946], [5.533, 44.79353], [5.53151, 44.78798], [5.53642, 44.78535], [5.53496, 44.78088], [5.53655, 44.77559], [5.5414, 44.77536], [5.54238, 44.7771], [5.54867, 44.7776], [5.54881, 44.78182], [5.54401, 44.78518], [5.54425, 44.79057], [5.56064, 44.78929], [5.56353, 44.78488], [5.58162, 44.778], [5.58135, 44.77152], [5.58528, 44.76275], [5.60353, 44.75947], [5.60434, 44.75769], [5.60976, 44.75752], [5.61053, 44.75484], [5.62475, 44.75356], [5.63303, 44.73664], [5.64515, 44.73056], [5.64743, 44.7251], [5.64587, 44.7157], [5.64948, 44.71514], [5.64993, 44.71258], [5.6544, 44.71232], [5.65684, 44.71046], [5.65864, 44.69511], [5.65595, 44.69157], [5.65236, 44.69125], [5.6413, 44.6789], [5.64168, 44.67691], [5.64876, 44.67282], [5.65098, 44.66646], [5.65169, 44.65474], [5.64904, 44.6521], [5.6418, 44.65111], [5.63997, 44.64691], [5.64215, 44.63965], [5.64068, 44.63509], [5.64263, 44.62235], [5.65, 44.61874], [5.64848, 44.61338], [5.6471, 44.61071], [5.63581, 44.6087], [5.63526, 44.60018], [5.62744, 44.59424], [5.6259, 44.5887], [5.62703, 44.58597], [5.62267, 44.58597], [5.6183, 44.58309], [5.61536, 44.57832], [5.61503, 44.57184], [5.60897, 44.57075], [5.60337, 44.56256], [5.59913, 44.55438], [5.59739, 44.54433], [5.61538, 44.53405], [5.62092, 44.53567], [5.6272, 44.53552], [5.65026, 44.51695], [5.64887, 44.51424], [5.65009, 44.5112], [5.65713, 44.50238], [5.65318, 44.49887], [5.64942, 44.49896], [5.64216, 44.50273], [5.63419, 44.5029], [5.62851, 44.50102], [5.62407, 44.49515], [5.62482, 44.48424], [5.61985, 44.48209], [5.61678, 44.47362], [5.60899, 44.4684], [5.60558, 44.46822], [5.6038, 44.46492], [5.5963, 44.466], [5.57661, 44.47276], [5.57199, 44.47183], [5.56878, 44.46935], [5.5625, 44.46949], [5.54615, 44.48234], [5.53174, 44.48461], [5.51077, 44.4941], [5.51201, 44.49721], [5.50606, 44.50141], [5.51263, 44.5091], [5.51412, 44.51795], [5.50729, 44.52116], [5.49813, 44.52141], [5.49448, 44.52419], [5.49332, 44.53289], [5.48364, 44.53524], [5.47947, 44.5397], [5.47639, 44.54081], [5.46748, 44.54011], [5.45883, 44.54391], [5.45743, 44.54721], [5.45029, 44.5504], [5.4479, 44.55315], [5.44805, 44.55675], [5.45194, 44.55932], [5.44938, 44.56354], [5.44391, 44.56669], [5.43829, 44.56687], [5.43448, 44.56336], [5.42693, 44.56353], [5.42587, 44.56534], [5.42105, 44.56431], [5.42017, 44.55287], [5.41581, 44.55286], [5.4125, 44.55033], [5.40659, 44.55021], [5.39988, 44.54565], [5.39824, 44.54073], [5.39337, 44.53954], [5.39172, 44.53547], [5.38296, 44.53656], [5.38205, 44.53927], [5.3611, 44.53963], [5.35547, 44.53675], [5.35253, 44.53181], [5.34676, 44.53088], [5.34484, 44.52837], [5.33894, 44.52913], [5.33577, 44.52226], [5.3228, 44.5216], [5.3196, 44.51959], [5.31918, 44.51415], [5.32401, 44.5117], [5.32127, 44.50636], [5.31475, 44.50827], [5.31117, 44.50567], [5.30662, 44.50557], [5.30089, 44.50048], [5.2952, 44.50135], [5.29191, 44.49616], [5.28314, 44.49146], [5.2802, 44.4865], [5.27385, 44.48573], [5.25632, 44.48699], [5.25269, 44.49067], [5.25299, 44.49895], [5.24938, 44.50244], [5.24944, 44.5064], [5.24087, 44.50982], [5.23864, 44.51707], [5.24142, 44.5244], [5.23673, 44.53242], [5.23686, 44.53719], [5.22884, 44.55599], [5.22829, 44.57399], [5.23082, 44.5755], [5.23106, 44.58035], [5.22746, 44.58484], [5.22672, 44.59953], [5.2104, 44.61201], [5.20502, 44.61407], [5.19962, 44.61422], [5.19717, 44.61607], [5.19742, 44.62236], [5.20277, 44.6305], [5.19914, 44.63404], [5.20059, 44.64157], [5.19823, 44.64306], [5.19812, 44.64628], [5.19297, 44.65018], [5.1859, 44.65051], [5.1828, 44.65318], [5.17095, 44.65531], [5.16498, 44.65811], [5.13597, 44.66139], [5.11819, 44.66174], [5.09987, 44.66835], [5.08177, 44.66963], [5.0792, 44.66518], [5.07546, 44.66379], [5.07519, 44.65895], [5.0712, 44.65362], [5.05017, 44.6585], [5.03835, 44.65872], [5.02632, 44.65516], [5.02442, 44.65089], [5.02054, 44.64826], [5.01111, 44.64743], [5.00648, 44.64311], [5.00151, 44.645], [4.99853, 44.64851], [4.9935, 44.64954], [4.99265, 44.64426], [4.9904, 44.64397], [4.98874, 44.64073], [4.9837, 44.64082], [4.97994, 44.64956], [4.97519, 44.64998], [4.97256, 44.6551], [4.96782, 44.65551], [4.96768, 44.65781], [4.96469, 44.65908], [4.95656, 44.65751], [4.95316, 44.65933], [4.94632, 44.65948], [4.93885, 44.65692], [4.92846, 44.66962], [4.92285, 44.66891], [4.91069, 44.67541], [4.90265, 44.67554], [4.9003, 44.6738], [4.89652, 44.67387], [4.89703, 44.68926], [4.8948, 44.70224], [4.88992, 44.7028], [4.88986, 44.70593], [4.88462, 44.71081], [4.87757, 44.71111], [4.87757, 44.71417], [4.87464, 44.71642], [4.87017, 44.71664], [4.86671, 44.71938], [4.86014, 44.71861], [4.86013, 44.72167], [4.85658, 44.72589], [4.86035, 44.72816], [4.86006, 44.73103], [4.84919, 44.7314], [4.84604, 44.73406], [4.8417, 44.73423], [4.84188, 44.74267], [4.83574, 44.74513], [4.83463, 44.75925], [4.82522, 44.7642], [4.81864, 44.76343], [4.81491, 44.76529], [4.80477, 44.76455], [4.79977, 44.76643], [4.79842, 44.76376], [4.7959, 44.7638], [4.7884, 44.76662], [4.78846, 44.76842]]]}}]}