{"type": "FeatureCollection", "features": [{"type": "Feature", "properties": {"nom": "Bassin de la Gervanne", "surface_km2": 151.8}, "geometry": {"type": "Polygon", "coordinates": [[[5.08295, 44.74954], [5.08393, 44.75042], [5.0845, 44.75049], [5.08459, 44.75108], [5.08515, 44.75116], [5.08589, 44.75214], [5.08593, 44.75335], [5.08533, 44.754], [5.0855, 44.7585], [5.08829, 44.75942], [5.08908, 44.76136], [5.0907, 44.76245], [5.09308, 44.76244], [5.09423, 44.76396], [5.09472, 44.76399], [5.0952, 44.76439], [5.09629, 44.7644], [5.09711, 44.76499], [5.0969, 44.76778], [5.09659, 44.76797], [5.09666, 44.76979], [5.09635, 44.77], [5.09624, 44.77543], [5.09593, 44.77564], [5.09643, 44.78058], [5.09707, 44.78098], [5.09681, 44.78215], [5.09711, 44.78231], [5.09716, 44.78304], [5.09795, 44.78277], [5.09856, 44.78282], [5.09938, 44.78323], [5.10164, 44.78296], [5.10319, 44.78383], [5.10377, 44.78392], [5.10388, 44.78539], [5.10419, 44.78555], [5.10422, 44.78606], [5.10487, 44.78648], [5.10484, 44.78708], [5.10427, 44.78719], [5.1043, 44.78809], [5.1052, 44.78861], [5.10593, 44.78958], [5.10563, 44.78986], [5.10566, 44.79053], [5.10598, 44.79074], [5.10605, 44.79258], [5.10513, 44.79348], [5.1052, 44.79528], [5.10551, 44.79543], [5.10554, 44.79595], [5.10604, 44.79597], [5.10619, 44.79638], [5.10677, 44.79647], [5.10685, 44.79705], [5.10744, 44.79736], [5.10751, 44.79793], [5.10783, 44.79811], [5.10784, 44.79868], [5.10726, 44.79952], [5.10732, 44.80036], [5.10698, 44.80065], [5.10705, 44.80247], [5.10675, 44.8029], [5.10802, 44.80347], [5.10813, 44.8058], [5.10845, 44.80602], [5.10817, 44.80744], [5.10788, 44.80761], [5.1079, 44.80857], [5.107, 44.80965], [5.10703, 44.8106], [5.10673, 44.81078], [5.10678, 44.81213], [5.1071, 44.81231], [5.10716, 44.8137], [5.10747, 44.81386], [5.1075, 44.81437], [5.10854, 44.81436], [5.109, 44.81464], [5.10942, 44.81519], [5.10945, 44.81591], [5.11039, 44.81647], [5.1105, 44.81837], [5.1108, 44.81852], [5.11118, 44.81971], [5.11183, 44.82014], [5.11297, 44.82017], [5.11602, 44.82231], [5.11763, 44.82229], [5.11793, 44.8225], [5.11985, 44.82247], [5.12015, 44.82269], [5.12124, 44.82269], [5.12204, 44.82323], [5.1221, 44.824], [5.12261, 44.82404], [5.12436, 44.82531], [5.12514, 44.82532], [5.12564, 44.82573], [5.1276, 44.8257], [5.1285, 44.82613], [5.12957, 44.82612], [5.13043, 44.82677], [5.13126, 44.8268], [5.13301, 44.82807], [5.13399, 44.82783], [5.13458, 44.8282], [5.13497, 44.82983], [5.1353, 44.83003], [5.13538, 44.83208], [5.1357, 44.83227], [5.13578, 44.83432], [5.13609, 44.83448], [5.13613, 44.83521], [5.13713, 44.83655], [5.13745, 44.83676], [5.13823, 44.83677], [5.13873, 44.83715], [5.13874, 44.8377], [5.13815, 44.83855], [5.13817, 44.83929], [5.13787, 44.83946], [5.1382, 44.83986], [5.13823, 44.84058], [5.13855, 44.84075], [5.13859, 44.8417], [5.1389, 44.84185], [5.13893, 44.84237], [5.13977, 44.84262], [5.14118, 44.84361], [5.14126, 44.84525], [5.14157, 44.8454], [5.14162, 44.84659], [5.14193, 44.84675], [5.14198, 44.84771], [5.14231, 44.84791], [5.14242, 44.85085], [5.14374, 44.85257], [5.14381, 44.85398], [5.14444, 44.85456], [5.14481, 44.85554], [5.14542, 44.85587], [5.14549, 44.85665], [5.14581, 44.85683], [5.14584, 44.85781], [5.14554, 44.858], [5.14562, 44.86005], [5.14531, 44.86026], [5.14534, 44.86093], [5.14566, 44.86113], [5.14576, 44.86387], [5.14546, 44.86408], [5.14549, 44.86502], [5.14519, 44.86544], [5.14689, 44.86542], [5.14825, 44.86588], [5.14932, 44.8666], [5.14945, 44.86918], [5.14975, 44.86932], [5.1498, 44.87008], [5.15013, 44.8703], [5.14992, 44.873], [5.15104, 44.87324], [5.15185, 44.87386], [5.15272, 44.87414], [5.15317, 44.87519], [5.15382, 44.87581], [5.15386, 44.87675], [5.15418, 44.87698], [5.15388, 44.8772], [5.15387, 44.87798], [5.15142, 44.87928], [5.15185, 44.88222], [5.15123, 44.88243], [5.15124, 44.88288], [5.15173, 44.88291], [5.15246, 44.8834], [5.15289, 44.88443], [5.15351, 44.88478], [5.15325, 44.88555], [5.15357, 44.88576], [5.15496, 44.88575], [5.15549, 44.88618], [5.15751, 44.88638], [5.15901, 44.88724], [5.16065, 44.88721], [5.16092, 44.88742], [5.16472, 44.88735], [5.16564, 44.88666], [5.16597, 44.88563], [5.16704, 44.88484], [5.16874, 44.88479], [5.16932, 44.88433], [5.17286, 44.88426], [5.17316, 44.88448], [5.17379, 44.88447], [5.17461, 44.88402], [5.17536, 44.88399], [5.17614, 44.88332], [5.17728, 44.88306], [5.17853, 44.88454], [5.17893, 44.88617], [5.17952, 44.88649], [5.17959, 44.88683], [5.18007, 44.88686], [5.18055, 44.88726], [5.1828, 44.88722], [5.18309, 44.88744], [5.18373, 44.88743], [5.18394, 44.88721], [5.18467, 44.88718], [5.18591, 44.88626], [5.18719, 44.88691], [5.18791, 44.8869], [5.18815, 44.88712], [5.19039, 44.88707], [5.1907, 44.88729], [5.19172, 44.88705], [5.19225, 44.8874], [5.1923, 44.88793], [5.19294, 44.88815], [5.19553, 44.8881], [5.1958, 44.88832], [5.1966, 44.88834], [5.19708, 44.88874], [5.19844, 44.88872], [5.199, 44.88915], [5.19981, 44.88917], [5.20131, 44.89158], [5.20894, 44.89143], [5.20923, 44.89165], [5.21056, 44.89163], [5.21114, 44.89184], [5.21184, 44.89006], [5.21299, 44.89045], [5.21405, 44.89045], [5.2149, 44.89086], [5.21578, 44.89093], [5.21588, 44.89152], [5.21649, 44.89165], [5.21688, 44.89285], [5.21922, 44.89305], [5.22072, 44.8939], [5.22127, 44.89395], [5.22138, 44.89434], [5.22233, 44.89513], [5.22239, 44.89589], [5.22271, 44.89611], [5.22355, 44.89615], [5.22368, 44.89654], [5.22422, 44.8966], [5.22466, 44.8972], [5.22522, 44.89727], [5.22531, 44.89764], [5.22788, 44.89848], [5.22897, 44.89849], [5.23044, 44.89933], [5.23108, 44.89932], [5.23152, 44.8989], [5.23201, 44.89885], [5.23341, 44.89795], [5.23387, 44.89791], [5.23465, 44.89725], [5.23543, 44.89721], [5.23579, 44.89661], [5.23674, 44.89589], [5.23758, 44.89559], [5.23766, 44.8952], [5.2382, 44.89512], [5.23838, 44.8917], [5.23931, 44.89127], [5.23922, 44.889], [5.23953, 44.88879], [5.2392, 44.88839], [5.23916, 44.88743], [5.23946, 44.88722], [5.23946, 44.88646], [5.23975, 44.88631], [5.23969, 44.88496], [5.2391, 44.88465], [5.23903, 44.88428], [5.23934, 44.88407], [5.23941, 44.88346], [5.24026, 44.88337], [5.24025, 44.88264], [5.24054, 44.88246], [5.24017, 44.88086], [5.24078, 44.88044], [5.24039, 44.87864], [5.24007, 44.87845], [5.23997, 44.87593], [5.24027, 44.87572], [5.2403, 44.87515], [5.24117, 44.87435], [5.24112, 44.87296], [5.24142, 44.87277], [5.24169, 44.87112], [5.24198, 44.87095], [5.24192, 44.86936], [5.24252, 44.86847], [5.24249, 44.86726], [5.2437, 44.86642], [5.24385, 44.86599], [5.24526, 44.86571], [5.24641, 44.86502], [5.24808, 44.86498], [5.24914, 44.86409], [5.25025, 44.86403], [5.25056, 44.8638], [5.25048, 44.86149], [5.25131, 44.86109], [5.25204, 44.86107], [5.25264, 44.86038], [5.25288, 44.85831], [5.25348, 44.85766], [5.25373, 44.85586], [5.25275, 44.8552], [5.25076, 44.85523], [5.24995, 44.85472], [5.24952, 44.85369], [5.24896, 44.85362], [5.24887, 44.85325], [5.2476, 44.85225], [5.24721, 44.85126], [5.245, 44.84964], [5.24492, 44.84928], [5.24429, 44.84892], [5.24425, 44.84839], [5.24302, 44.84765], [5.2426, 44.84685], [5.24168, 44.84631], [5.24092, 44.84441], [5.24061, 44.84423], [5.24018, 44.84172], [5.23987, 44.84156], [5.2395, 44.84038], [5.23853, 44.83956], [5.23811, 44.83748], [5.23781, 44.83733], [5.23743, 44.83615], [5.23514, 44.83439], [5.23463, 44.83435], [5.23353, 44.83355], [5.23389, 44.83292], [5.23444, 44.8326], [5.23482, 44.8313], [5.23534, 44.83146], [5.23756, 44.83141], [5.24011, 44.8294], [5.24064, 44.82932], [5.24156, 44.82863], [5.24116, 44.82661], [5.24084, 44.82636], [5.24148, 44.82536], [5.24205, 44.82502], [5.24208, 44.82467], [5.24265, 44.82433], [5.2425, 44.82048], [5.24311, 44.82004], [5.24303, 44.81802], [5.24142, 44.81676], [5.24098, 44.81401], [5.24, 44.81335], [5.23946, 44.8133], [5.23904, 44.81276], [5.23891, 44.80977], [5.23859, 44.80959], [5.23854, 44.80843], [5.23793, 44.80809], [5.23785, 44.80709], [5.23726, 44.80677], [5.23719, 44.8062], [5.23688, 44.80605], [5.23679, 44.80418], [5.23648, 44.80403], [5.2361, 44.80285], [5.23545, 44.80222], [5.23606, 44.80172], [5.23604, 44.80098], [5.23634, 44.80081], [5.23594, 44.7988], [5.23625, 44.79856], [5.23624, 44.79805], [5.23746, 44.79719], [5.23806, 44.79628], [5.23806, 44.79574], [5.23834, 44.7956], [5.23832, 44.79492], [5.23767, 44.7943], [5.23761, 44.79313], [5.23661, 44.7918], [5.2341, 44.79042], [5.234, 44.78983], [5.23261, 44.78962], [5.23241, 44.78941], [5.23062, 44.7894], [5.23016, 44.78856], [5.22951, 44.78812], [5.22899, 44.78808], [5.22886, 44.78768], [5.22835, 44.78764], [5.2273, 44.78693], [5.22659, 44.78599], [5.22655, 44.78525], [5.22545, 44.78502], [5.22365, 44.78396], [5.22252, 44.78372], [5.22107, 44.78266], [5.22042, 44.78245], [5.21918, 44.7827], [5.21826, 44.78339], [5.21805, 44.78383], [5.21534, 44.78389], [5.21421, 44.78338], [5.21347, 44.78236], [5.21255, 44.78182], [5.21249, 44.78148], [5.21154, 44.7815], [5.21127, 44.78173], [5.21007, 44.78169], [5.20937, 44.78121], [5.20897, 44.78042], [5.20838, 44.78011], [5.20765, 44.7791], [5.20391, 44.77907], [5.20347, 44.77716], [5.20247, 44.77564], [5.2024, 44.77373], [5.20266, 44.77357], [5.20491, 44.77352], [5.20522, 44.77251], [5.20641, 44.77147], [5.2064, 44.77095], [5.2067, 44.77078], [5.20624, 44.76719], [5.20494, 44.76632], [5.2044, 44.76626], [5.20397, 44.76568], [5.204, 44.76531], [5.20487, 44.76451], [5.20475, 44.76137], [5.2041, 44.76077], [5.20372, 44.75936], [5.20307, 44.75895], [5.20426, 44.7571], [5.20391, 44.75621], [5.20275, 44.75595], [5.20196, 44.75489], [5.20116, 44.75487], [5.20003, 44.75403], [5.19903, 44.75405], [5.19781, 44.75363], [5.1967, 44.75362], [5.1962, 44.75298], [5.1949, 44.75211], [5.19363, 44.75168], [5.19188, 44.7526], [5.19019, 44.75265], [5.18894, 44.75313], [5.18761, 44.75514], [5.18672, 44.75519], [5.18616, 44.75476], [5.18521, 44.75478], [5.18265, 44.75703], [5.18083, 44.75733], [5.18055, 44.75689], [5.17926, 44.75602], [5.17836, 44.75572], [5.17762, 44.75447], [5.17647, 44.75445], [5.17575, 44.75396], [5.17569, 44.75361], [5.17494, 44.75361], [5.17441, 44.75319], [5.17389, 44.75315], [5.17342, 44.75231], [5.1731, 44.75209], [5.1723, 44.75207], [5.17149, 44.75144], [5.1709, 44.75168], [5.16768, 44.75174], [5.16579, 44.7511], [5.16436, 44.75109], [5.1645, 44.74994], [5.1648, 44.74977], [5.16444, 44.74865], [5.16411, 44.74846], [5.16409, 44.74772], [5.16438, 44.7473], [5.16343, 44.7465], [5.16336, 44.7453], [5.16277, 44.74498], [5.1627, 44.74463], [5.16221, 44.74461], [5.16174, 44.7442], [5.1609, 44.74417], [5.16077, 44.74377], [5.15987, 44.74325], [5.15947, 44.74267], [5.15852, 44.74269], [5.15797, 44.74315], [5.15705, 44.74311], [5.15496, 44.74051], [5.15368, 44.74008], [5.15293, 44.74008], [5.15246, 44.73978], [5.1517, 44.73787], [5.15023, 44.73762], [5.1501, 44.73722], [5.14918, 44.73669], [5.14912, 44.73634], [5.14863, 44.73632], [5.14815, 44.73591], [5.14687, 44.73549], [5.1441, 44.73502], [5.14331, 44.7333], [5.14212, 44.73281], [5.14168, 44.73198], [5.14104, 44.73155], [5.14052, 44.73151], [5.13942, 44.73068], [5.13865, 44.73067], [5.13727, 44.72997], [5.13715, 44.72892], [5.13682, 44.7287], [5.1355, 44.72872], [5.13428, 44.7283], [5.13287, 44.7283], [5.13207, 44.72775], [5.13135, 44.72588], [5.12746, 44.72617], [5.12657, 44.72484], [5.12603, 44.72479], [5.12527, 44.72397], [5.12395, 44.72399], [5.12317, 44.72373], [5.12303, 44.72311], [5.12271, 44.72293], [5.12266, 44.72177], [5.12137, 44.72089], [5.11961, 44.72089], [5.11946, 44.72048], [5.11821, 44.71972], [5.11779, 44.71826], [5.11748, 44.71808], [5.11744, 44.71714], [5.11611, 44.71716], [5.11584, 44.71694], [5.11316, 44.71718], [5.11264, 44.71565], [5.1117, 44.71487], [5.11165, 44.71432], [5.11082, 44.71429], [5.11036, 44.71367], [5.10985, 44.71363], [5.10907, 44.71302], [5.10782, 44.71327], [5.10736, 44.71393], [5.10655, 44.71397], [5.10626, 44.71375], [5.10389, 44.71332], [5.10306, 44.71269], [5.10274, 44.71269], [5.10106, 44.71381], [5.10026, 44.71386], [5.09901, 44.71434], [5.09805, 44.71331], [5.09801, 44.71278], [5.09736, 44.71234], [5.09642, 44.71236], [5.09583, 44.71282], [5.09388, 44.71286], [5.09328, 44.71265], [5.09302, 44.71287], [5.09138, 44.71291], [5.08985, 44.71406], [5.08955, 44.71505], [5.08895, 44.71543], [5.08858, 44.71627], [5.08729, 44.71723], [5.08587, 44.71751], [5.0862, 44.71791], [5.08623, 44.71863], [5.08655, 44.71881], [5.08659, 44.71975], [5.0869, 44.71993], [5.08698, 44.72177], [5.0873, 44.72199], [5.08735, 44.72363], [5.08616, 44.72516], [5.08619, 44.72633], [5.0856, 44.72721], [5.08599, 44.72922], [5.08728, 44.73007], [5.08729, 44.7311], [5.08639, 44.73147], [5.08643, 44.73259], [5.08674, 44.73274], [5.08679, 44.73371], [5.08711, 44.7339], [5.0872, 44.73642], [5.0869, 44.73664], [5.08696, 44.73843], [5.08728, 44.73868], [5.08668, 44.73934], [5.08665, 44.73991], [5.08608, 44.74025], [5.08643, 44.74114], [5.08612, 44.74137], [5.08612, 44.74191], [5.08553, 44.74229], [5.0849, 44.74377], [5.08372, 44.74457], [5.08282, 44.74594], [5.08285, 44.74688], [5.08254, 44.74707], [5.08295, 44.74954]]]}}]}