{"type": "FeatureCollection", "features": [{"type": "Feature", "properties": {"id": "SB01", "commune": "Montclar-sur-Gervanne", "surface_km2": 10.0, "A1": 2.33, "A2": 85.63, "A3": 2.0, "B1": 2.4, "B2": 15.95, "B3": 67.7, "C1": 44.09, "C2": 6.43, "C3": 53.56, "D1": 34.94, "D2": 2.88, "D3": 1.36, "nom": "Bassin de Montclar-sur-Gervanne", "n_A1": 49.2, "n_A2": 68.8, "n_A3": 21.9, "n_B1": 100.0, "n_B2": 100.0, "n_B3": 100.0, "n_C1": 100.0, "n_C2": 95.2, "n_C3": 100.0, "n_D1": 74.8, "n_D2": 85.2, "n_D3": 8.7, "f_A": 46.6, "f_B": 100.0, "f_C": 98.4, "f_D": 56.2, "note": 74.8, "rang": 1, "etoiles": 5}, "geometry": {"type": "Polygon", "coordinates": [[[5.0863529391671545, 44.718700906353156], [5.0865456489166485, 44.71880867877175], [5.086605391507464, 44.7196654634306], [5.087153305343551, 44.72035950274471], [5.088923491398806, 44.72038001122114], [5.089596064314888, 44.72015208007398], [5.0912040991011525, 44.72009914749276], [5.091920944988367, 44.71969642552406], [5.093039553813308, 44.71957473909066], [5.094155937937671, 44.71875208005732], [5.095027686872929, 44.718927301472604], [5.095478662434384, 44.7195537826671], [5.096290229943956, 44.72016494897693], [5.096491241593646, 44.72068519431059], [5.097922085791851, 44.72192432871149], [5.098086854899341, 44.723018269284054], [5.098493402030953, 44.723681411810034], [5.099180290572964, 44.72400027458573], [5.100148659548679, 44.72409193952431], [5.101086818150347, 44.72468859251679], [5.1014198465887475, 44.72522824452743], [5.1031113094030305, 44.726329147722645], [5.103326029035231, 44.72767981966153], [5.10468222911763, 44.72920267930486], [5.106276474188622, 44.72992005661791], [5.1070323400312985, 44.73006372183855], [5.10800941116735, 44.7308966882853], [5.108248586652173, 44.731691162198636], [5.109072694439053, 44.73230224898329], [5.109595083593242, 44.73326996066178], [5.11080048671382, 44.73417949092426], [5.111142699292858, 44.734877363445115], [5.111228654921552, 44.73588247967933], [5.1124444755087035, 44.7370549237659], [5.112547300037465, 44.73824553445829], [5.112946066950237, 44.73903174881424], [5.113626277537811, 44.73947576828314], [5.114616595231689, 44.739626471433546], [5.115129122083853, 44.740153780887134], [5.115760485030892, 44.74123938401276], [5.115536829146299, 44.74220753651529], [5.115931752857578, 44.74280624320688], [5.117669732417197, 44.7442263803314], [5.117953316852672, 44.744952214927615], [5.119735626904081, 44.746300902350946], [5.1201009574888, 44.746809576293785], [5.120275407953106, 44.74772772058069], [5.122125688067402, 44.74840859805879], [5.1229970776546505, 44.74937242720282], [5.123468213682937, 44.750508804963744], [5.124991737862394, 44.7522733749177], [5.125178522943268, 44.753433028911864], [5.127730027214175, 44.755385858829996], [5.130984642385027, 44.75560372457426], [5.132419820517762, 44.755154198774264], [5.133392155423805, 44.75505190360112], [5.134354466165617, 44.75367680704853], [5.135242535339854, 44.75299030631356], [5.136383794102084, 44.752773773406695], [5.137179339996207, 44.75236412831371], [5.138272208041498, 44.75233515897209], [5.139014290329943, 44.75108677550609], [5.139865727835499, 44.750240986256685], [5.141605547327593, 44.74998229621163], [5.142727778922395, 44.74942769446068], [5.143639563652619, 44.74807080865834], [5.145579598924246, 44.74637719541405], [5.146597413134211, 44.745880769840035], [5.148473162013189, 44.74554604761987], [5.149054282032009, 44.74512024209613], [5.1491134645524825, 44.744283097270056], [5.149672541341693, 44.74322644323205], [5.149686540953207, 44.74246838044968], [5.149961479743979, 44.74202878745908], [5.149792325771342, 44.74108358164486], [5.150434108129548, 44.74065364441893], [5.151164490981829, 44.740523280697424], [5.152069567819887, 44.73979354482624], [5.151597742194705, 44.73799442961896], [5.150227769563469, 44.73762075486363], [5.149030997034499, 44.736430789163734], [5.148111949175146, 44.735952536790144], [5.144103715130371, 44.73502274446297], [5.14320572742333, 44.73328261683799], [5.142118592502123, 44.732805627956196], [5.141603964110824, 44.7319874611915], [5.141052329836602, 44.73161104698225], [5.140523521239519, 44.73150734667885], [5.139419343404911, 44.730733517291824], [5.138646850324129, 44.730666075260906], [5.137272905185108, 44.72997220889009], [5.137140545539069, 44.72904519586279], [5.136855392606872, 44.72877645587827], [5.135499345035528, 44.72872132498534], [5.134114573743178, 44.72830904176918], [5.132871739284154, 44.728300730760054], [5.132070490335661, 44.72774927731881], [5.131175690559242, 44.72593616943213], [5.1274625967715135, 44.726165730625354], [5.126514877022562, 44.72495823039389], [5.126033274317854, 44.724792633755534], [5.125306141527839, 44.72404528436092], [5.123950271875178, 44.72399001207774], [5.123168286093851, 44.72373280647556], [5.1227125926717445, 44.722934600342654], [5.122553609551052, 44.72174732040324], [5.1212793511358194, 44.720919444165325], [5.11961200303633, 44.72088708805292], [5.118214649430643, 44.719722469026955], [5.117332339742305, 44.71726498696596], [5.116113802837754, 44.71716026087607], [5.115637507369832, 44.716950592660645], [5.114753039192679, 44.716972563771996], [5.114310217771281, 44.71719776045251], [5.113156888893036, 44.71718285081373], [5.112607159768501, 44.71570861712088], [5.111701875346973, 44.71487494482591], [5.111571426281458, 44.71447458195311], [5.110818349238548, 44.71429032760327], [5.109066869876994, 44.71307846679738], [5.107860063284041, 44.713309800045295], [5.107359473352188, 44.71392740702887], [5.105526390330876, 44.713999326321066], [5.102890855473198, 44.71276321141661], [5.102127023708563, 44.71298526329307], [5.101061681806101, 44.71381286116222], [5.099323643749519, 44.71410691680442], [5.099008375883445, 44.714337720264396], [5.098053244206503, 44.713313733001705], [5.097930507137074, 44.71278680503971], [5.097140192649744, 44.712349025471404], [5.0965055356727085, 44.712385163751925], [5.095832003156402, 44.7128208795754], [5.093878880983643, 44.712857836094386], [5.09342970148915, 44.71271213184076], [5.093021791398139, 44.71287099949838], [5.091517117908409, 44.712918569763445], [5.089929346278451, 44.714061997132006], [5.089547128942655, 44.71505066367826], [5.088580437426342, 44.71626631169474], [5.087294783861732, 44.717225390389046], [5.086246422599273, 44.71748722441962], [5.0863529391671545, 44.718700906353156]]]}}, {"type": "Feature", "properties": {"id": "SB09", "commune": "Suze", "surface_km2": 12.8, "A1": 3.01, "A2": 84.73, "A3": 3.92, "B1": 1.74, "B2": 12.17, "B3": 63.34, "C1": 37.44, "C2": 6.32, "C3": 36.02, "D1": 40.34, "D2": 2.83, "D3": 1.11, "nom": "la Romane", "n_A1": 72.7, "n_A2": 66.8, "n_A3": 43.0, "n_B1": 70.0, "n_B2": 76.3, "n_B3": 93.4, "n_C1": 83.9, "n_C2": 85.7, "n_C3": 65.6, "n_D1": 90.3, "n_D2": 82.5, "n_D3": 0.0, "f_A": 60.8, "f_B": 79.9, "f_C": 78.4, "f_D": 57.6, "note": 69.3, "rang": 2, "etoiles": 5}, "geometry": {"type": "Polygon", "coordinates": [[[5.082825096726334, 44.74614354542832], [5.082574520647664, 44.74781941456474], [5.082899581017009, 44.74816838829215], [5.0829874197376785, 44.749485803245086], [5.083714595365626, 44.7502254109853], [5.084495205477382, 44.75049361746568], [5.085886273263607, 44.75214378311338], [5.085931143735483, 44.75335385082517], [5.085336749311806, 44.75414924764205], [5.0855503150615045, 44.758464275461], [5.088286626213473, 44.75941599647664], [5.089132631524787, 44.76132380921647], [5.090664608250225, 44.76237676699949], [5.09308134910179, 44.762443480402816], [5.094349933519904, 44.76389755404847], [5.095282524959866, 44.76436690148665], [5.096288520095458, 44.76439856522696], [5.097108352495664, 44.76499097058617], [5.096896366649171, 44.76778200072965], [5.096601043158887, 44.76812148931284], [5.096659501301569, 44.769791704414466], [5.096360685781519, 44.770152446851675], [5.096237472152851, 44.77542861243738], [5.095937823436218, 44.77582267541354], [5.096032765239863, 44.7783782055179], [5.096361703573703, 44.778760859218586], [5.096427403919502, 44.780423418076836], [5.097072364244753, 44.78097780325878], [5.096810799583314, 44.782033273269484], [5.097253421220708, 44.78248460390315], [5.09768807766848, 44.78253224705559], [5.099555108695003, 44.78172390515328], [5.099656986235015, 44.780910892677284], [5.100472276164269, 44.78013583327515], [5.100536966617599, 44.7795722778787], [5.101658236803143, 44.77820885114377], [5.1020497042157, 44.77726301567043], [5.102883710915498, 44.77656957555539], [5.1032286242477, 44.77546839346748], [5.103788538122414, 44.77469600250876], [5.103731602875929, 44.77284953635292], [5.104020228178286, 44.772440027938565], [5.104143247868572, 44.77083124683962], [5.108934930022039, 44.7706650668082], [5.10984566229604, 44.771089679551416], [5.111009747382981, 44.77085072189881], [5.113049496621714, 44.77081184895145], [5.114218250845472, 44.7712228219794], [5.115140074227615, 44.77121878004383], [5.117041270611429, 44.76967938454424], [5.118057871384318, 44.76935910511195], [5.118123306289884, 44.76846009475612], [5.118725959845943, 44.7672926698773], [5.119900278850051, 44.76605812867465], [5.119571706162029, 44.764574597811155], [5.120115284591025, 44.764082731217435], [5.121348148162355, 44.76090906892926], [5.122802349088786, 44.759861817872334], [5.12311956710585, 44.759241748561884], [5.1231188599616715, 44.7584575342103], [5.123691679789489, 44.757654678756424], [5.123690964690786, 44.75687046484495], [5.1248356317581685, 44.75522060640204], [5.1254457632591865, 44.75364601428608], [5.12512233672421, 44.753212409419625], [5.125038331899252, 44.752180450324346], [5.123479862168782, 44.75040692647845], [5.123012441603955, 44.74926228480619], [5.121980583985215, 44.748217239448756], [5.120719788862901, 44.74788525658323], [5.120235410024304, 44.747569667294485], [5.120118713496633, 44.746700919876034], [5.119735602177552, 44.74616903016642], [5.118938755298467, 44.74580645357285], [5.118669586592891, 44.745212998675925], [5.117929079103208, 44.744898547405015], [5.117740924617796, 44.744156153535414], [5.1159021410342165, 44.742642436336794], [5.115802809812201, 44.74115453182232], [5.11507675777955, 44.739947553220425], [5.114669829921976, 44.739554813425556], [5.1137682807166795, 44.73946218758285], [5.112936703084814, 44.73890040011556], [5.112541513256104, 44.738110886803234], [5.112473620482806, 44.736916187455094], [5.11122064556044, 44.73575194380416], [5.111138332737544, 44.7347140271086], [5.110768746361129, 44.73399046865537], [5.109583786931379, 44.73313791793334], [5.109101237729841, 44.73218722823206], [5.108239023253937, 44.73155980313047], [5.108104555666129, 44.73085908534685], [5.107174730731718, 44.73000034538203], [5.106461109691469, 44.729919740859266], [5.104731659174807, 44.72919068713778], [5.10331802686498, 44.72754148153178], [5.103193480167442, 44.72622422715717], [5.101424196408078, 44.725200730366204], [5.100983943894044, 44.72447134189079], [5.10027933220492, 44.724035143921334], [5.0993744220259005, 44.723998610166475], [5.0984964277086515, 44.72365359002485], [5.098080460659354, 44.722881664789426], [5.097976019019774, 44.72182013289862], [5.096480147104879, 44.720553000027984], [5.096331064837462, 44.72005006471616], [5.095518196838776, 44.71947147257111], [5.094764370556572, 44.718559824204995], [5.093816306163629, 44.71877096965478], [5.092876608619366, 44.71961743928624], [5.091767576714594, 44.71966787085186], [5.090979389807314, 44.720112149483846], [5.087308134857773, 44.72041943036783], [5.08695614364399, 44.72065926673432], [5.087300862465342, 44.721989143514534], [5.08734886275396, 44.72362767751053], [5.086179697251226, 44.72524743837112], [5.086192863479287, 44.72633048836853], [5.085606023587766, 44.72738460747653], [5.086023499632685, 44.729155396429746], [5.087283445637797, 44.73007358386212], [5.0872857103842515, 44.731101670704106], [5.086395994987029, 44.73165450446024], [5.08643566316663, 44.73246978851639], [5.0867394130018235, 44.732743680761786], [5.087109673461339, 44.73390446096514], [5.087203059061996, 44.73642215033975], [5.086903268032368, 44.73681664612971], [5.087070394738982, 44.73851534071923], [5.087284963153515, 44.738683797573266], [5.08665200898045, 44.73991007644089], [5.086122525613882, 44.74035051930833], [5.086431895747499, 44.74114352345553], [5.086121758119961, 44.74190842960452], [5.085358810593509, 44.742684279824786], [5.084899630124584, 44.74377068788145], [5.0836963983041015, 44.744849444690914], [5.082825096726334, 44.74614354542832]]]}}, {"type": "Feature", "properties": {"id": "SB10", "commune": "Gigors-et-Lozeron", "surface_km2": 12.3, "A1": 1.56, "A2": 80.96, "A3": 5.68, "B1": 1.03, "B2": 8.6, "B3": 35.41, "C1": 38.2, "C2": 6.48, "C3": 37.54, "D1": 43.7, "D2": 3.16, "D3": 1.34, "nom": "Ruisseau de Chantemerle", "n_A1": 22.9, "n_A2": 58.6, "n_A3": 62.4, "n_B1": 37.7, "n_B2": 53.9, "n_B3": 51.4, "n_C1": 85.7, "n_C2": 100.0, "n_C3": 68.5, "n_D1": 100.0, "n_D2": 100.0, "n_D3": 8.0, "f_A": 48.0, "f_B": 47.7, "f_C": 84.7, "f_D": 69.3, "note": 61.4, "rang": 3, "etoiles": 5}, "geometry": {"type": "Polygon", "coordinates": [[[5.0980452413314, 44.78272209929373], [5.099448764265205, 44.78320014967117], [5.100284473047113, 44.78298699562452], [5.101638020509713, 44.782964384229395], [5.103773786282846, 44.78392050939325], [5.103900337916999, 44.78530911382813], [5.104191442235889, 44.78555040873774], [5.10427816208877, 44.78602971668518], [5.104869932412873, 44.78648015459117], [5.104840441771302, 44.78707750534503], [5.104292038991145, 44.787391859018136], [5.104303614152978, 44.78796234305039], [5.105199685803046, 44.78860779401467], [5.1059264725632865, 44.78957898543783], [5.105630827834486, 44.78986472824245], [5.105647321098003, 44.79031154126142], [5.105977905726736, 44.79073713103309], [5.106046941447435, 44.79257985691171], [5.105157814378942, 44.79356103489789], [5.105199813677418, 44.79512761317457], [5.105638393766655, 44.79585266147673], [5.106773374439123, 44.79647245140279], [5.106902925473373, 44.7970126634068], [5.107442435221177, 44.79736384202834], [5.10787698688914, 44.79847387336506], [5.1072814556694475, 44.7996000013535], [5.107321809416156, 44.800356967045474], [5.106996957623759, 44.800772227251734], [5.107049978466451, 44.80246782565619], [5.106851358082845, 44.80277843154659], [5.108015174198287, 44.80347029370784], [5.108122009221014, 44.80565215514146], [5.1084497925359775, 44.806022400492495], [5.108461749966395, 44.80641145860688], [5.108173977484953, 44.807441982218265], [5.107890680642287, 44.80772699189007], [5.107900111834622, 44.8085729911624], [5.107044131186365, 44.80970492744715], [5.107034128317486, 44.81059508999554], [5.106744511372231, 44.81090102071773], [5.10717446499437, 44.813617067535375], [5.1076682412541325, 44.814291540978346], [5.108535377080387, 44.814360825349816], [5.109002166692837, 44.8146379115266], [5.109420853927009, 44.81519295833018], [5.109508252183753, 44.81587661302721], [5.110388230124293, 44.816465012388534], [5.1104998658513, 44.81824942282817], [5.111257504571334, 44.819699503974306], [5.111913990320487, 44.820115929160565], [5.1129723896158294, 44.8201695635159], [5.115427389536161, 44.82188366303058], [5.116045779542204, 44.82203940341242], [5.1172036215289545, 44.820992876218625], [5.117250842773485, 44.82045867261057], [5.117800451367633, 44.8197192028118], [5.1178188590242355, 44.81912696871963], [5.118963145929051, 44.8169950503774], [5.118994905254486, 44.816372447950236], [5.119852069368949, 44.81540192925933], [5.1198619657339535, 44.814584695926186], [5.120424845968294, 44.81381484581464], [5.120443224038721, 44.81322261245335], [5.120717534253031, 44.81287579956509], [5.120738714152346, 44.8122862014434], [5.121288196949017, 44.81154671638312], [5.121319927442423, 44.810924114424225], [5.123384812612153, 44.80882698855252], [5.12340860134627, 44.807987151161356], [5.124246216432912, 44.80703915931627], [5.124900188365763, 44.80522652563404], [5.125444113262208, 44.80473462605276], [5.125519674384916, 44.80380703750101], [5.126757492600482, 44.80240630571217], [5.127700890261556, 44.80169387338564], [5.129139046406938, 44.80129209384236], [5.130886477254659, 44.79998705313], [5.135358449045226, 44.795711306619054], [5.139144906332912, 44.7926228468122], [5.139603451417889, 44.79160258017258], [5.141345611751682, 44.789738001890356], [5.14183569226976, 44.785753438505864], [5.141504451105011, 44.785288505137636], [5.141447699736117, 44.784117508042485], [5.14071475137389, 44.78269559680566], [5.1399313633133, 44.78236073224423], [5.1386532468146875, 44.78140553912324], [5.137197848852159, 44.78135561645322], [5.136404107237263, 44.78085798228551], [5.135866845638152, 44.779432210129684], [5.134847968915493, 44.778076564967606], [5.133376191205067, 44.777488685469166], [5.132660461821196, 44.77674022104084], [5.132527202819261, 44.775845020518695], [5.1319188235652, 44.77544237691772], [5.130198679901111, 44.77491346200708], [5.1297206440800265, 44.77451419980817], [5.129719933526355, 44.77383670715814], [5.130601000513392, 44.773016998407435], [5.130203488211847, 44.7708075333445], [5.130772116754622, 44.76919352269089], [5.130622079095509, 44.76517050557761], [5.130917449410001, 44.76468754467202], [5.130828210169256, 44.76219970483018], [5.131137635257055, 44.76120053760962], [5.131662338997411, 44.76073893744783], [5.131995762038111, 44.75997194435991], [5.131660145144076, 44.75913456964779], [5.131578372153253, 44.75704639867181], [5.132166558412581, 44.7561409620639], [5.1320342010209, 44.755307496201034], [5.131553358274578, 44.755226005516334], [5.130750487955388, 44.7556105670067], [5.129723892265793, 44.75540684472681], [5.128038898923456, 44.75542370993448], [5.125959353791331, 44.75399808305405], [5.125286042919603, 44.754085084089745], [5.123687638893398, 44.75673183984473], [5.123687079621401, 44.75751792743553], [5.1231155354801245, 44.75831890911574], [5.123114968198639, 44.759104997141144], [5.122798741179772, 44.75983256034502], [5.121346849516592, 44.76077722292943], [5.12011255072051, 44.76395186924316], [5.119568973532111, 44.764443735800995], [5.119569631117065, 44.765355501015335], [5.119886412381292, 44.76595250646312], [5.118723229051498, 44.76716180772238], [5.118119993528353, 44.76832146902794], [5.118033561295076, 44.76925293696256], [5.117598195768226, 44.76956009273743], [5.116854544368876, 44.76968822486127], [5.114961411901696, 44.77122193749991], [5.114370227344443, 44.7712109543838], [5.11323869854317, 44.770808060088605], [5.11082053157449, 44.770854144810926], [5.110126342922217, 44.7710908252325], [5.1091135723544925, 44.77066141488142], [5.1041428736144425, 44.77083093909161], [5.104015674628073, 44.772303275100484], [5.103726306361079, 44.772714759514194], [5.103783984952888, 44.77455924955438], [5.103227131445852, 44.77532805053353], [5.102881016531604, 44.77643871259205], [5.102048875068035, 44.77712748547858], [5.1013599264424085, 44.778522987078176], [5.1005354804237, 44.77943193470993], [5.100466359169943, 44.780101914888476], [5.099638176119808, 44.78079988286848], [5.099554625070404, 44.781723688024776], [5.09797396088623, 44.782255290075646], [5.0980452413314, 44.78272209929373]]]}}, {"type": "Feature", "properties": {"id": "SB02", "commune": "Beaufort-sur-Gervanne", "surface_km2": 6.8, "A1": 1.46, "A2": 63.39, "A3": 8.87, "B1": 1.79, "B2": 9.95, "B3": 41.13, "C1": 37.79, "C2": 6.32, "C3": 40.82, "D1": 22.54, "D2": 3.09, "D3": 1.2, "nom": "Bassin de Beaufort-sur-Gervanne", "n_A1": 19.5, "n_A2": 20.4, "n_A3": 97.6, "n_B1": 72.2, "n_B2": 62.4, "n_B3": 60.0, "n_C1": 84.7, "n_C2": 85.7, "n_C3": 75.0, "n_D1": 39.0, "n_D2": 96.3, "n_D3": 3.2, "f_A": 45.8, "f_B": 64.9, "f_C": 81.8, "f_D": 46.2, "note": 59.7, "rang": 4, "etoiles": 4}, "geometry": {"type": "Polygon", "coordinates": [[[5.129724513959318, 44.77458814776484], [5.130047542633092, 44.77493036558927], [5.131704047022182, 44.77544076830719], [5.132333553416524, 44.77583975539357], [5.132667295833013, 44.776869695161686], [5.133375725231024, 44.777611560446495], [5.134379561738179, 44.77789490387879], [5.134872613204696, 44.778238223157594], [5.1358710298342025, 44.779573771235476], [5.136387481509798, 44.78096699227786], [5.137058632157922, 44.78136735995898], [5.138765455770169, 44.781549919756145], [5.139509327052149, 44.782220657859696], [5.140580863941247, 44.78275717426482], [5.141475558482648, 44.78390857565925], [5.142967089079425, 44.78347924387505], [5.144155811894841, 44.78288334561156], [5.145152036417796, 44.782806258014695], [5.1456215534829814, 44.782984200589134], [5.146473473401152, 44.7838260633347], [5.1479987292195775, 44.784464944488555], [5.148399570762526, 44.78447378310625], [5.148937303970917, 44.78414683736974], [5.149666698524092, 44.784008215958195], [5.150489931383734, 44.78339628197035], [5.1512192907173295, 44.781751338669764], [5.152161500701022, 44.78100014217222], [5.154831863949804, 44.78033517690382], [5.156019448986497, 44.77981737313691], [5.156776280026086, 44.777959276973], [5.158340311615936, 44.777737218428676], [5.1606965232811834, 44.777920543342695], [5.16138072735874, 44.77758639029544], [5.162066484024156, 44.77752307202332], [5.162922969361028, 44.777726081678836], [5.165786152326678, 44.777816551593126], [5.166173875954181, 44.77811332702414], [5.166662279842956, 44.77902845748996], [5.168845556978811, 44.78052482998897], [5.170225120938335, 44.780947480743116], [5.171491535726055, 44.78105313622752], [5.174387382171385, 44.783107072602654], [5.175468849805887, 44.783334786849345], [5.177069805764162, 44.78332202947206], [5.177689062780608, 44.78351643175771], [5.180001514765771, 44.78349216821653], [5.181813436935171, 44.78388541911192], [5.183047930100218, 44.783848523009894], [5.183462888923957, 44.78353617208609], [5.183420411822685, 44.781981364382396], [5.183061233901636, 44.78105427345417], [5.181771435822462, 44.779191201383476], [5.181235766903988, 44.77789195345734], [5.179988270757263, 44.77719527038245], [5.178162713367362, 44.7769585184258], [5.175806604147986, 44.77614123646168], [5.174839057723373, 44.77607947174762], [5.172560631424734, 44.775184991420424], [5.170755442191776, 44.77376270525523], [5.169835198240159, 44.77333707704382], [5.1679266863302376, 44.771638412254674], [5.167052064779502, 44.77050543871675], [5.165842098895058, 44.769831832908416], [5.164106449886152, 44.76951015620992], [5.162163995082423, 44.76860462229451], [5.161122226576809, 44.76745899617834], [5.160999987366142, 44.766400745635124], [5.160626535059165, 44.76588150924095], [5.159319344183038, 44.76495725268053], [5.158919110848855, 44.7647623662638], [5.157830919756796, 44.76475268056638], [5.156387918338875, 44.76436189779341], [5.15500921375544, 44.764357429964235], [5.153844117059125, 44.76396097948521], [5.1529823661345935, 44.76391908834563], [5.15166397017132, 44.76334686265895], [5.150056387279328, 44.76292060404967], [5.14910832181538, 44.76286755826869], [5.1468638879147965, 44.762081627608865], [5.1451991446531515, 44.76183378978145], [5.144853912219868, 44.76157234030808], [5.144262290947112, 44.76030801654423], [5.1410616251342285, 44.75767838834078], [5.138784150708332, 44.75662194448811], [5.1380466151396424, 44.756527713739466], [5.136149573740385, 44.75574749897374], [5.133985621000582, 44.755771032617226], [5.1332386193595, 44.75519456453956], [5.13267664624264, 44.7551254378682], [5.132284261241534, 44.75530946301949], [5.131990809717467, 44.756547768379896], [5.1315965229257285, 44.75696006288961], [5.1316659089047105, 44.759269210190496], [5.1319453147804275, 44.7598873400578], [5.1316479170480775, 44.760602173683516], [5.13113560321907, 44.76106994135143], [5.130824271066186, 44.762065028434726], [5.130905276636497, 44.764491232925145], [5.130617191982236, 44.765041710800375], [5.13076267771737, 44.76903368243117], [5.130198990282787, 44.77066683963545], [5.130560670237566, 44.77277443006742], [5.1297179853286705, 44.77370604212827], [5.129724513959318, 44.77458814776484]]]}}, {"type": "Feature", "properties": {"id": "SB05", "commune": "Plan-de-Baix", "surface_km2": 27.2, "A1": 0.89, "A2": 85.57, "A3": 3.31, "B1": 0.93, "B2": 0.04, "B3": 16.75, "C1": 34.36, "C2": 6.43, "C3": 34.39, "D1": 39.58, "D2": 2.37, "D3": 2.59, "nom": "Ruisseau des Combes", "n_A1": 0.0, "n_A2": 68.6, "n_A3": 36.4, "n_B1": 33.1, "n_B2": 0.3, "n_B3": 23.3, "n_C1": 76.4, "n_C2": 95.2, "n_C3": 62.4, "n_D1": 88.1, "n_D2": 58.1, "n_D3": 50.9, "f_A": 35.0, "f_B": 18.9, "f_C": 78.0, "f_D": 65.7, "note": 47.9, "rang": 5, "etoiles": 4}, "geometry": {"type": "Polygon", "coordinates": [[[5.116718987760383, 44.82229517871868], [5.121242360187956, 44.82269056450018], [5.122036627668509, 44.82322960909209], [5.122194391798854, 44.82390240779067], [5.124364127072506, 44.825250874480986], [5.125138237877868, 44.825317950049644], [5.125773207057091, 44.82571658452241], [5.127598804715153, 44.82570018922957], [5.128623242929718, 44.82611162734076], [5.129570912443505, 44.82612471076683], [5.13047145239977, 44.82672693113613], [5.131256435356052, 44.82679981601028], [5.133011484644179, 44.82801206320769], [5.13399405973907, 44.827827360116366], [5.134581832051389, 44.82820056704076], [5.135295548909954, 44.830030138904256], [5.135371399843719, 44.831925221446824], [5.135697274641212, 44.832274050223965], [5.135773142153952, 44.83416913389025], [5.136086081808095, 44.83447621754573], [5.1361450223148495, 44.83512891461067], [5.137234540502957, 44.836566594354984], [5.138229904869525, 44.83677492885657], [5.138726441314111, 44.83714813457356], [5.138740525925731, 44.837704141115346], [5.138533111608168, 44.83782133980725], [5.137972304101671, 44.839569474801586], [5.138547278953413, 44.84075423182667], [5.138593899920044, 44.841578725451555], [5.139039357335602, 44.84238579030823], [5.139769075615022, 44.84262265563269], [5.141180879763868, 44.843609790962674], [5.141261151660816, 44.845129937800934], [5.14156577793412, 44.84540369018525], [5.141628902212068, 44.8464738367331], [5.14193353756541, 44.84674758822758], [5.1423056900087944, 44.84790822880278], [5.142424542901775, 44.85073663709276], [5.1437382407066226, 44.85256706595522], [5.143823059272026, 44.85389476513573], [5.14443759794635, 44.8545598237943], [5.144869693227836, 44.85550681794943], [5.145424922273951, 44.855872267970376], [5.14549476238774, 44.856531661469745], [5.145807349113081, 44.85682605553507], [5.145844995412823, 44.85781114035983], [5.145549494456272, 44.8581507695234], [5.145618100316222, 44.86004600983794], [5.145319119116656, 44.86040689506249], [5.145659459498245, 44.86112828178331], [5.1457610442086965, 44.86374890054148], [5.14547113317585, 44.86419832455011], [5.145470601221919, 44.865183829817035], [5.145751506401416, 44.8653993740726], [5.146892338571036, 44.86542010858842], [5.148254251639004, 44.8658760813335], [5.149317951397158, 44.86660499469953], [5.149448356101761, 44.869031082652185], [5.150127659185088, 44.87029509166775], [5.149931278745573, 44.872793929176765], [5.152721055579773, 44.874142606909615], [5.153816656862624, 44.87581023169384], [5.15385888535182, 44.876752402567604], [5.154183656386562, 44.87698257827989], [5.153876173080993, 44.87720292322036], [5.153870543483468, 44.877981366714316], [5.151449574004123, 44.879367921080934], [5.151849740894126, 44.8822177506175], [5.1514752794969425, 44.882733655331556], [5.152462238015987, 44.883395750141524], [5.152940962283424, 44.88439348437687], [5.153510576673446, 44.88478190754804], [5.153345777762881, 44.885422110589325], [5.153536640341922, 44.885689023316836], [5.154955076046513, 44.8857542712537], [5.155574362445282, 44.88615078273226], [5.156496712578176, 44.88616264610691], [5.158233853892842, 44.886623260311616], [5.159099139752574, 44.8872081561849], [5.159872385663742, 44.88719311976266], [5.160497019542355, 44.886752030454666], [5.160694482352823, 44.88617619913284], [5.161837428489232, 44.88575357198132], [5.1635495919437355, 44.88446777948566], [5.164238363089648, 44.883662356927736], [5.164589343510076, 44.88208503653619], [5.165369832208507, 44.881585513874], [5.165856078187904, 44.8806590984388], [5.167568620547369, 44.87965364288257], [5.167543227839856, 44.8790482624547], [5.166937445929898, 44.87833108341798], [5.166552511219074, 44.87721071674819], [5.167761088636561, 44.876467518585486], [5.168658148058138, 44.87550119457299], [5.16865695988497, 44.87478108176952], [5.168338204817018, 44.874248644181115], [5.1694997243268075, 44.871759588291404], [5.169467125167094, 44.87116253177572], [5.169143091433661, 44.87072503877981], [5.169431937368822, 44.87025202253041], [5.169370772538289, 44.86987408992517], [5.1679465755707525, 44.86918627375116], [5.166494400370135, 44.86766415926383], [5.16640869515525, 44.86527952655724], [5.167037965333759, 44.86405132226522], [5.167564774759678, 44.86358855140887], [5.1676503615063005, 44.86288363194127], [5.168023774111547, 44.86272251238122], [5.175897773038107, 44.8625858402379], [5.179237682891998, 44.86163515042316], [5.180688449474645, 44.86157829883176], [5.1811145620271475, 44.861233237721336], [5.181062138853197, 44.85971029216654], [5.180082468648065, 44.85864801539322], [5.1802543593744925, 44.857660894817116], [5.1800225183496345, 44.85726665613776], [5.179955849471057, 44.855678968660264], [5.179635110990117, 44.85527925511982], [5.1792274472114, 44.85340809829761], [5.1779324673512415, 44.851545869254885], [5.177853130239739, 44.850925410826974], [5.177211466536718, 44.84992276473754], [5.1774623623408536, 44.84852250176951], [5.176799234995487, 44.847453993315085], [5.176742579104161, 44.84628493453759], [5.176414385984984, 44.845853843172996], [5.176321970052885, 44.84378285004732], [5.175597783963729, 44.8421562724517], [5.173332879414865, 44.83902660958744], [5.172911268817137, 44.83773735188584], [5.171947873391227, 44.83632160296988], [5.171871259553151, 44.83508850618755], [5.170857135657426, 44.832934485338626], [5.170792198312102, 44.83173211454654], [5.170112905791015, 44.830215522577284], [5.170056776874424, 44.828762525981126], [5.170352117857225, 44.828285403715576], [5.170319534861468, 44.827688355850775], [5.169995745181908, 44.827250871501064], [5.169828620179073, 44.82267322201761], [5.170145749091268, 44.82241001372359], [5.1717983398164655, 44.8223611094052], [5.172223104778332, 44.822151830462445], [5.172613540668763, 44.82155342969757], [5.172570555052834, 44.8202547943535], [5.171670133396778, 44.81952627569126], [5.171170125095945, 44.81877469152612], [5.1694131781440245, 44.817557178154], [5.168611358014935, 44.8166667980923], [5.169235099921393, 44.815982181352105], [5.169752921851788, 44.812268859561705], [5.170372271229765, 44.81107179180054], [5.171108298310456, 44.81057914957721], [5.171171429493968, 44.81026673891143], [5.170313709568647, 44.80920592669733], [5.168845308897111, 44.80885750436606], [5.168074799545002, 44.808338328473], [5.1680122338292, 44.80776948046137], [5.168821618869778, 44.80710539777722], [5.168850647347136, 44.80672150763471], [5.167908934328486, 44.806058639480774], [5.166755488787651, 44.80570701136874], [5.1659666281775065, 44.80497077861118], [5.164202839919423, 44.8051886345917], [5.163066341386073, 44.80564408592494], [5.16041920407719, 44.805695537869], [5.160066220258535, 44.805554115202845], [5.158643177117317, 44.803031619918876], [5.157887246000028, 44.80087829854301], [5.1565799494051126, 44.79898786560179], [5.15638089873899, 44.794922474989875], [5.155222869186831, 44.794204399705315], [5.154371982967993, 44.79320838413238], [5.151915732343977, 44.791090332793054], [5.151432782697093, 44.790143600954664], [5.1508461677776705, 44.789642401815804], [5.151109735302911, 44.78850096912205], [5.150706174901063, 44.787680913219724], [5.148210533036925, 44.78573066005356], [5.148024654061759, 44.78432704669299], [5.146308925400355, 44.78359373007088], [5.1456069648747205, 44.78268602060734], [5.144012952029388, 44.78285109265641], [5.142782815051175, 44.783486282339375], [5.1420756382809225, 44.78359413276359], [5.141509920152597, 44.7840312033061], [5.141267704489939, 44.784825312456285], [5.141849400141622, 44.78618248656233], [5.141555132912025, 44.78662568667983], [5.141610599894122, 44.78821355453142], [5.141322167426617, 44.788623162920004], [5.1413409660519855, 44.78960124984192], [5.13958099395162, 44.79149878053498], [5.13914622527298, 44.79248930138029], [5.13535977697162, 44.795577761113925], [5.130859675743005, 44.799878232478044], [5.1289888347449395, 44.80128050756147], [5.128274913679205, 44.80139242130893], [5.127289141145956, 44.80184941882387], [5.125497238048512, 44.803703234583345], [5.125441364966527, 44.80460376244747], [5.124897441278837, 44.8050956620437], [5.1242449099297, 44.80690731132623], [5.12340527321891, 44.807848523725745], [5.123382068910602, 44.80869612471615], [5.121317188412482, 44.81079325049486], [5.12128487391781, 44.811408088586795], [5.120737176648228, 44.81214585699989], [5.1207036547736955, 44.81277017564301], [5.120429344913065, 44.813116988614674], [5.120421524932376, 44.81367621788728], [5.119858645963526, 44.81444606807792], [5.119835385445875, 44.81529367019828], [5.118992171372594, 44.81624158372517], [5.118959828310582, 44.81685642225915], [5.1178155440251265, 44.81898834060038], [5.117797136456348, 44.81958057453307], [5.117234162401232, 44.82035041292171], [5.11719908749005, 44.820958043441216], [5.11664933278646, 44.82131210732741], [5.116324817391553, 44.82197144615309], [5.116718987760383, 44.82229517871868]]]}}, {"type": "Feature", "properties": {"id": "SB11", "commune": "Le Chaffal", "surface_km2": 12.2, "A1": 1.35, "A2": 93.7, "A3": 6.57, "B1": 0.48, "B2": 0.0, "B3": 9.45, "C1": 18.25, "C2": 6.14, "C3": 28.38, "D1": 36.79, "D2": 1.6, "D3": 3.41, "nom": "Ruisseau Corbi\u00e8re/Ruisseau de Comberoufle", "n_A1": 15.9, "n_A2": 86.3, "n_A3": 72.2, "n_B1": 12.5, "n_B2": 0.0, "n_B3": 12.3, "n_C1": 37.3, "n_C2": 70.9, "n_C3": 50.6, "n_D1": 80.1, "n_D2": 17.7, "n_D3": 78.8, "f_A": 58.1, "f_B": 8.3, "f_C": 52.9, "f_D": 58.9, "note": 44.5, "rang": 6, "etoiles": 4}, "geometry": {"type": "Polygon", "coordinates": [[[5.160388823247691, 44.8870933704794], [5.161085074843144, 44.887413633826355], [5.164585201015724, 44.887337692226545], [5.165561140574903, 44.88665528447597], [5.165968456669043, 44.88562743769736], [5.16703733426319, 44.88484362957128], [5.168604128742476, 44.88478239997613], [5.169322258896241, 44.88433359220107], [5.172863734838786, 44.88426434876712], [5.1736259201467965, 44.88446681246088], [5.174606952256254, 44.88402013307454], [5.175309256405171, 44.88395039705731], [5.17613617749194, 44.8833235449231], [5.177282725011181, 44.88305524107365], [5.178532618152773, 44.884539222298024], [5.178587756813408, 44.885384360718746], [5.17889278352888, 44.885658014136176], [5.178980295853092, 44.886137279167386], [5.180638842931524, 44.88723761024112], [5.182797326267795, 44.88722193107093], [5.183559587556044, 44.88742432678339], [5.183944511635983, 44.88720746114655], [5.18461867770042, 44.887145215213465], [5.185912742133475, 44.88625921297117], [5.188313150479728, 44.88710558114232], [5.190393378923262, 44.887072358422486], [5.190844116307141, 44.88721834235516], [5.191718727207104, 44.88705429368343], [5.192253977171503, 44.8874013599975], [5.192426377190002, 44.88786028024207], [5.193013045546059, 44.88811868191711], [5.195531307177791, 44.888099802954216], [5.196601996355685, 44.888335418831666], [5.197167395081255, 44.88871319184885], [5.198435747659392, 44.88872290378787], [5.199041413479951, 44.889112272640865], [5.199807312674737, 44.88917493490583], [5.2010335565567685, 44.89111917050453], [5.201603957298814, 44.89156455097411], [5.208936317957276, 44.89143370895861], [5.209396989739978, 44.891641929004095], [5.210788931489238, 44.891694941186685], [5.211379049286427, 44.891361304543636], [5.211422108670149, 44.890644316627004], [5.211986753900281, 44.88946324792518], [5.211685729208583, 44.88912765648391], [5.211269699109144, 44.88764332842557], [5.210647563119937, 44.886896583642226], [5.2105657917261725, 44.88585594839616], [5.209943684909572, 44.885109200087854], [5.209879648226473, 44.88451856048347], [5.209257565357864, 44.883771808645086], [5.208841639150721, 44.882287473981705], [5.208191509923144, 44.88125362905002], [5.208088609320925, 44.87876595627013], [5.207755782142295, 44.878295262788164], [5.208030365372692, 44.877224720135544], [5.207705589275737, 44.8767913386579], [5.2076408662578295, 44.87605059279329], [5.207637114481559, 44.87505035523326], [5.207920443342594, 44.87449100576607], [5.207591845978795, 44.87406000264796], [5.207506681225639, 44.87202232914625], [5.207185653301744, 44.871622693090494], [5.207119494029008, 44.87022864387666], [5.206790927756555, 44.86979763897102], [5.206701946091476, 44.8681441058434], [5.206176509192171, 44.86765687682822], [5.204442233692696, 44.86762947264538], [5.202948255442224, 44.86687078152985], [5.20246100327259, 44.86591433684693], [5.201569270773589, 44.86504011383529], [5.2014617134891425, 44.864593094088356], [5.200368850039423, 44.864032464857424], [5.199925673697226, 44.86349649657982], [5.199487593142002, 44.86218530224004], [5.1988903831417925, 44.8616855222005], [5.198821954548825, 44.86067743080473], [5.198509493719867, 44.86031108382487], [5.198453864613576, 44.859051716101675], [5.198654633589243, 44.85864894365321], [5.198422659382775, 44.85825474320305], [5.198353230789314, 44.85632013603456], [5.199507055038906, 44.85510916133909], [5.199579417999281, 44.8546585744357], [5.200437475201672, 44.853429413105204], [5.200399993006924, 44.852001323299476], [5.2009612681154564, 44.85045832261422], [5.2008558283567785, 44.84822876852295], [5.2000910493839685, 44.84771422546367], [5.1976807988574185, 44.84750845543537], [5.196988768204238, 44.84712551533682], [5.195956712840739, 44.84689606583732], [5.193577798871579, 44.846696400270865], [5.192433512383436, 44.846423234153285], [5.191245497176632, 44.845334741937336], [5.191751901363248, 44.84417662485499], [5.189453042211504, 44.84246716203671], [5.188125831723157, 44.84254673311177], [5.187292591393156, 44.84299707803228], [5.1849340195289315, 44.84304354589299], [5.1843581095535685, 44.84283836696192], [5.18288587541748, 44.84286056674717], [5.182276620954121, 44.843091348112694], [5.180914365377724, 44.843130992647666], [5.180165388127678, 44.843565415504145], [5.178977014061745, 44.84362807640872], [5.176416005531511, 44.84451720584076], [5.176419354722993, 44.845988629692584], [5.176740017250573, 44.846388351374884], [5.176805098876474, 44.8475907243884], [5.177467333843603, 44.84865728843596], [5.177182846336467, 44.84917001339725], [5.177217331678892, 44.850059495898435], [5.179584564651014, 44.8544386100422], [5.179640982591892, 44.85541598638899], [5.179960827591258, 44.85581375552644], [5.180079520534757, 44.858743914339406], [5.181047924901615, 44.859782984800106], [5.1811004785889345, 44.86113583973686], [5.180547983961671, 44.861571458293355], [5.179042870053836, 44.861640334730374], [5.175708252162532, 44.8625893740179], [5.168659311714192, 44.86272919604271], [5.168043962306614, 44.862585361179235], [5.167649699063883, 44.86274161518035], [5.167561925394819, 44.863457686387854], [5.16701780072177, 44.863949801926765], [5.166208329076053, 44.865748982880135], [5.16649895711155, 44.867791428773145], [5.168165526015845, 44.86947934763325], [5.169370275160516, 44.869874291659244], [5.169148529455701, 44.87086577095368], [5.169494285339193, 44.871618856126545], [5.168333486379539, 44.87411188947055], [5.168655295540256, 44.875370329084596], [5.167957119027019, 44.876166336836334], [5.166547716407298, 44.877082181717164], [5.166586519391109, 44.87777100297367], [5.167534813144249, 44.87915700875316], [5.167575853536608, 44.87959132447958], [5.1658581810318775, 44.88052660378987], [5.1653639576728185, 44.88155745304301], [5.164589658621627, 44.88195236285901], [5.164221027997693, 44.88356298181126], [5.162935542444159, 44.88500892985507], [5.160717663430119, 44.88612597754443], [5.160388823247691, 44.8870933704794]]]}}, {"type": "Feature", "properties": {"id": "SB08", "commune": "Montclar-sur-Gervanne", "surface_km2": 13.2, "A1": 3.39, "A2": 72.1, "A3": 4.55, "B1": 0.48, "B2": 0.42, "B3": 22.78, "C1": 9.69, "C2": 5.66, "C3": 7.91, "D1": 19.47, "D2": 1.92, "D3": 3.5, "nom": "la Vaugelette", "n_A1": 85.7, "n_A2": 39.4, "n_A3": 50.0, "n_B1": 12.5, "n_B2": 2.6, "n_B3": 32.3, "n_C1": 16.6, "n_C2": 29.7, "n_C3": 10.4, "n_D1": 30.2, "n_D2": 35.0, "n_D3": 81.9, "f_A": 58.4, "f_B": 15.8, "f_C": 18.9, "f_D": 49.0, "note": 36.0, "rang": 7, "etoiles": 3}, "geometry": {"type": "Polygon", "coordinates": [[[5.133807541672458, 44.75577040105723], [5.135997847065172, 44.7557588273707], [5.140280498630212, 44.7572995388076], [5.142953578794987, 44.75912808360732], [5.144296778391796, 44.760467334768116], [5.144967499890557, 44.7618259834635], [5.146667183706158, 44.76208225015917], [5.14894067145781, 44.76288786178872], [5.1498596110686075, 44.762920997218785], [5.151497045123664, 44.763352656959405], [5.152773413690949, 44.76393926761649], [5.153649740500313, 44.76396287205249], [5.154730571702333, 44.764363192551585], [5.15614979239719, 44.76435713176477], [5.157590166071153, 44.76475787176463], [5.158897685941104, 44.76481896924517], [5.160626910500282, 44.76600429153305], [5.16100681353389, 44.766537278051324], [5.161093419261943, 44.76757863619766], [5.1621327753557225, 44.76865119008607], [5.16337712852494, 44.76934833078606], [5.164096955732226, 44.7695845450531], [5.165012156562259, 44.76961910648189], [5.167036018220212, 44.77054214548578], [5.167910598279733, 44.77174787420835], [5.1689448579249095, 44.77267985200289], [5.172534689168833, 44.7752264819334], [5.1747357190730705, 44.77611952494321], [5.175612244846575, 44.776142955831226], [5.177929361590857, 44.776957467534054], [5.1798461206335285, 44.77720903139368], [5.181229992000359, 44.77791924498662], [5.181777892533951, 44.77933215591044], [5.183056364343713, 44.781160105153646], [5.1834689028994605, 44.78290803715208], [5.183719292028498, 44.78313507953946], [5.186165499425167, 44.78357029820355], [5.187298430811328, 44.78325289136383], [5.1883683110754335, 44.7822356739887], [5.189659304073553, 44.78193383239769], [5.193670881286365, 44.78340197171145], [5.195991296108651, 44.783826402791625], [5.196912778687205, 44.783808426210506], [5.198849115515985, 44.78246279082225], [5.201238270101512, 44.782096019707666], [5.202155367937376, 44.78087582299492], [5.203161329631569, 44.7807491945971], [5.203543499203869, 44.78049823799324], [5.203846062397931, 44.77878395310517], [5.203618339026009, 44.77780261930061], [5.202466498018711, 44.775641308488204], [5.202399677735782, 44.77373337956304], [5.202664766634941, 44.773569392206326], [5.204802557261099, 44.77343208792694], [5.205547483809836, 44.77202091067076], [5.2063493336188325, 44.771435789371765], [5.206688618587939, 44.770601243262306], [5.206638070347781, 44.7695541299485], [5.206320550514361, 44.76923882816501], [5.206222125439465, 44.76728682688017], [5.20520970667129, 44.766529896377044], [5.204398534421553, 44.76626260119386], [5.203968607850834, 44.76568299019818], [5.204002802601589, 44.76531413526009], [5.204855573636819, 44.764400297958346], [5.204749753193163, 44.76151925886443], [5.2041034187674, 44.76076868077276], [5.203685887390084, 44.75942532449917], [5.203066511114065, 44.75876048486146], [5.204175433459533, 44.75687770308381], [5.203793371394565, 44.75627056398347], [5.20275342475019, 44.755952594854044], [5.201867631719891, 44.754989203369504], [5.201160944686791, 44.75487385986136], [5.200030860435725, 44.754088249271746], [5.1966960012426755, 44.7536151406475], [5.19520827413393, 44.75234026470734], [5.193998995173396, 44.75178798980687], [5.193155202184599, 44.751931217537944], [5.191880350755482, 44.75260064288553], [5.190350520571996, 44.752653770127914], [5.188981676440919, 44.75316473317359], [5.188022529156394, 44.754822545696], [5.1876087187603, 44.7551422843314], [5.186718792154783, 44.75518642564734], [5.186072084827576, 44.7547836755401], [5.185300665388712, 44.75479889366392], [5.182650383059049, 44.75702897017731], [5.180825308418991, 44.75733382721043], [5.1795605203596375, 44.75625181058617], [5.178364002504982, 44.75572434749882], [5.177519288982667, 44.75456978209836], [5.176471957070609, 44.75444857059498], [5.175555025635483, 44.75368658995968], [5.174937390563791, 44.753610044721206], [5.173888324140715, 44.75314530000084], [5.173055531254805, 44.75212682142959], [5.17229647703971, 44.75206615135831], [5.171420864745996, 44.75152394726914], [5.170902267373914, 44.75167781642416], [5.167684876586665, 44.751740816813815], [5.165675793489622, 44.75112081950983], [5.164357091107929, 44.7510946133425], [5.164207299043477, 44.75089296283892], [5.164513810573051, 44.75067777456638], [5.164498540372912, 44.74993947556], [5.164739453289667, 44.749594003849545], [5.164114139941198, 44.74845561979643], [5.164273666465281, 44.74736048847902], [5.163428355266142, 44.74650479722955], [5.163250962151886, 44.745276542956226], [5.161733696481267, 44.744259596772395], [5.16090390766026, 44.744167758332345], [5.1594228207283805, 44.74271151399892], [5.158609006819099, 44.74271320467891], [5.157965517028977, 44.74314629210724], [5.157054529729856, 44.74310600869926], [5.154823216228116, 44.740463902188644], [5.1529321694287455, 44.74007997551779], [5.152201012755721, 44.739734075963874], [5.150979070551898, 44.74053127788465], [5.150301755608383, 44.740624305291504], [5.149661919071592, 44.740985096522564], [5.14995192811147, 44.74192571079476], [5.1496688894479075, 44.74230371936133], [5.149669966369636, 44.74308792902984], [5.149106259955938, 44.744115906611654], [5.149002801435336, 44.74503911396637], [5.14828878018761, 44.7455527751067], [5.146408514523034, 44.74587735397584], [5.145137093185077, 44.74654406742171], [5.1436352575675786, 44.74793418490653], [5.14254301583533, 44.74943692335167], [5.141465691372465, 44.74997602019897], [5.140020706436769, 44.75003457482105], [5.139642155672325, 44.75023797771402], [5.138192249257434, 44.7522435873509], [5.136904030003504, 44.75235437428201], [5.136240880162242, 44.75276567515402], [5.135342363474453, 44.752834802211645], [5.134957503744097, 44.753045152752534], [5.133739734452194, 44.7542348230741], [5.1334137390445065, 44.755446736565794], [5.133807541672458, 44.75577040105723]]]}}, {"type": "Feature", "properties": {"id": "SB13", "commune": "Ombl\u00e8ze", "surface_km2": 5.4, "A1": 3.54, "A2": 100.0, "A3": 1.86, "B1": 0.21, "B2": 0.0, "B3": 2.04, "C1": 4.15, "C2": 5.38, "C3": 3.7, "D1": 22.77, "D2": 1.58, "D3": 2.25, "nom": "Ruisseau de Lardenne", "n_A1": 90.6, "n_A2": 100.0, "n_A3": 20.4, "n_B1": 0.0, "n_B2": 0.0, "n_B3": 1.1, "n_C1": 3.1, "n_C2": 5.1, "n_C3": 2.1, "n_D1": 39.7, "n_D2": 17.1, "n_D3": 38.9, "f_A": 70.3, "f_B": 0.4, "f_C": 3.4, "f_D": 31.9, "note": 28.4, "rang": 8, "etoiles": 3}, "geometry": {"type": "Polygon", "coordinates": [[[5.217240739772947, 44.851692239571044], [5.217718189800499, 44.85196022420696], [5.219019283251785, 44.85183261062577], [5.219632866502377, 44.85217611706483], [5.219764419927614, 44.85307733162464], [5.221038822523114, 44.85468153707996], [5.221813408979708, 44.85644572132198], [5.222402822466956, 44.85708601480223], [5.22331169790799, 44.857294817584716], [5.223783657130228, 44.85821242207119], [5.2250307447935675, 44.85955539097859], [5.225188944050667, 44.86016831876712], [5.2260883655035135, 44.86090219410213], [5.226923187478336, 44.86124894809815], [5.228699543507258, 44.86287636003439], [5.230126276360457, 44.86338402661473], [5.23324636404291, 44.86523618923299], [5.235604970786861, 44.86567257201091], [5.237024105799688, 44.86566457010172], [5.239024306708984, 44.86609804233287], [5.2396755193167355, 44.866472279222855], [5.240582874025728, 44.8665038235247], [5.241275382013384, 44.8668903389805], [5.242651842366508, 44.86703764777242], [5.243372921108303, 44.86663392691831], [5.243851692218358, 44.86598988886533], [5.24522261778494, 44.86566881378306], [5.246406080671233, 44.86502003673058], [5.2479874893784215, 44.86495320757082], [5.249136576085343, 44.86409061554254], [5.250122607136727, 44.86402040982681], [5.250505133472409, 44.8637692844512], [5.250483293484027, 44.86148534210648], [5.2513146206221135, 44.86109260034841], [5.252064269064511, 44.86099162085903], [5.252601793079275, 44.86032860915], [5.252624773893966, 44.85964248080646], [5.252913385509007, 44.859323499046965], [5.252880696481495, 44.85830703723546], [5.2534424599331375, 44.857609434837485], [5.253692750174497, 44.85591889579443], [5.252705926740026, 44.85524058319962], [5.250763031046096, 44.85523101606243], [5.249949550909178, 44.854720167367596], [5.24945466323611, 44.853807448775385], [5.248959959964888, 44.85361812036457], [5.248888076119224, 44.85331528682097], [5.247602405586821, 44.85225481160645], [5.247131090150188, 44.85126487816966], [5.244997959096597, 44.8496414245368], [5.244291271076283, 44.84892472848336], [5.244167556235907, 44.84839757991179], [5.243019370382546, 44.847654866399914], [5.242523116262415, 44.84685261443769], [5.241682266995482, 44.84631339598228], [5.240605120771093, 44.844229527713196], [5.240238872850522, 44.84308986448348], [5.240164821668995, 44.84180397672139], [5.23987284225346, 44.84156303462957], [5.239462826209797, 44.84044476879709], [5.238527176016107, 44.839563632020464], [5.238162056917685, 44.838628310287724], [5.238110129927085, 44.83759995447101], [5.237805075781401, 44.83732646796236], [5.237395131811165, 44.83620819603982], [5.236546609713713, 44.835642348956036], [5.236099228502126, 44.83506033611463], [5.233807620749051, 44.83378076804301], [5.232989314743606, 44.83390746890068], [5.232305776039715, 44.8360692783728], [5.2315319369154185, 44.83646811015253], [5.229951566472451, 44.83814520203772], [5.229049680889173, 44.83977610324306], [5.2290191280323794, 44.840398741379936], [5.2284707816167355, 44.84113876645452], [5.2284402216028, 44.84176140470887], [5.2279155567134845, 44.842223475348476], [5.226957145480535, 44.84426807816154], [5.2254019296688305, 44.84663368284124], [5.222536908852671, 44.848550368116314], [5.220922808528221, 44.8486614554622], [5.219566477225537, 44.84941439801008], [5.219234610980201, 44.85010874999454], [5.218288213878375, 44.851041592016095], [5.217332949078029, 44.85132873386783], [5.217240739772947, 44.851692239571044]]]}}, {"type": "Feature", "properties": {"id": "SB07", "commune": "Eygluy-Escoulin", "surface_km2": 16.3, "A1": 3.81, "A2": 85.66, "A3": 4.92, "B1": 0.63, "B2": 0.43, "B3": 2.74, "C1": 3.58, "C2": 5.39, "C3": 3.56, "D1": 8.99, "D2": 1.39, "D3": 2.23, "nom": "la S\u00e9pie", "n_A1": 100.0, "n_A2": 68.8, "n_A3": 54.1, "n_B1": 19.2, "n_B2": 2.7, "n_B3": 2.2, "n_C1": 1.7, "n_C2": 6.4, "n_C3": 1.8, "n_D1": 0.0, "n_D2": 7.2, "n_D3": 38.3, "f_A": 74.3, "f_B": 8.0, "f_C": 3.3, "f_D": 15.2, "note": 28.2, "rang": 9, "etoiles": 2}, "geometry": {"type": "Polygon", "coordinates": [[[5.174896741140085, 44.80401268459676], [5.175146570574767, 44.80424323094659], [5.176427600175472, 44.804282840579624], [5.180056491274676, 44.80561538737758], [5.180501520614308, 44.806107930504], [5.18143039593618, 44.806522995769626], [5.183231693546693, 44.808185612446096], [5.184259236619789, 44.80843592502219], [5.186047601010236, 44.80962267601895], [5.187437720496377, 44.81009472872469], [5.188903178542938, 44.81009900348889], [5.189529084831348, 44.81030544303749], [5.192217413477995, 44.81025063522978], [5.192878686705002, 44.810014091275434], [5.195817475056418, 44.8101654206866], [5.198303172473884, 44.81146832516042], [5.203295358756599, 44.811301311362755], [5.204048270110061, 44.81176532065616], [5.205332734681591, 44.81211802093892], [5.206891685810716, 44.81508691454217], [5.20814726386267, 44.816659801155595], [5.208213803411741, 44.81724768823612], [5.208929766998593, 44.81864904643961], [5.210210016304443, 44.82047670677331], [5.210314005834357, 44.82238475083233], [5.211383904650608, 44.82425369720151], [5.212848683891998, 44.82526504159488], [5.213307190289525, 44.82580587848173], [5.214451459609875, 44.82634005781324], [5.215050769255707, 44.82695722489743], [5.2164239786199165, 44.827670535318326], [5.217937735516925, 44.82997728124821], [5.219512986523362, 44.83151176322005], [5.220791276080636, 44.832349337808694], [5.221544526338259, 44.832448189498535], [5.22255033942451, 44.83289418306834], [5.223769184438162, 44.83367750064192], [5.224837649264942, 44.83385185365939], [5.225391562320146, 44.833686730207134], [5.228326173598604, 44.83362594689688], [5.2290052914865175, 44.83383577882623], [5.233283021811675, 44.8337271442276], [5.234382345100943, 44.83257071214839], [5.234816488581339, 44.8312967716445], [5.235159230369732, 44.83126003852613], [5.235343804617982, 44.831457960683466], [5.23750917181185, 44.83137468515844], [5.240106074548814, 44.82939769728049], [5.241502056390817, 44.828599151161704], [5.2410783889186385, 44.826547134218636], [5.240839385758543, 44.826360512586845], [5.2414789244695426, 44.82535830969747], [5.242639227879411, 44.82420456357614], [5.242501271706349, 44.82048410472186], [5.243100831679497, 44.81991695698664], [5.243037785482863, 44.818169071345245], [5.24262016817733, 44.817578166643145], [5.24141505239343, 44.81676290006328], [5.241340571336823, 44.815276150062154], [5.24101925670278, 44.814948720211596], [5.24092128759515, 44.8140401800974], [5.239458596635846, 44.81329552137697], [5.23904097088386, 44.81275776897267], [5.238912772315783, 44.809921078905205], [5.238591502435263, 44.809593642609705], [5.2385352032493975, 44.8085524147524], [5.237928437304725, 44.80809134322952], [5.2378367545837845, 44.80718333487949], [5.237258339725485, 44.80677238511407], [5.236875814270505, 44.806046337314086], [5.236784058028061, 44.804301290614944], [5.23544894896813, 44.80221687833719], [5.236330156661851, 44.80066372527306], [5.2359419881595795, 44.79879634701072], [5.236241388457317, 44.798051421536265], [5.237401602164961, 44.79716165007536], [5.238330347016242, 44.79547793288567], [5.238299750971411, 44.79500592477682], [5.237666229822109, 44.79430073632909], [5.23759614412201, 44.793218770186115], [5.23653258016498, 44.79180649302212], [5.234095160326208, 44.79041621178186], [5.233841982972874, 44.789881343982096], [5.232287946998105, 44.78942804156154], [5.2306244721324155, 44.78939524047382], [5.22981459405035, 44.78835138143938], [5.228991209425682, 44.78807708117855], [5.22890800411939, 44.78782665454879], [5.2272994125479135, 44.786932816440725], [5.226592310059899, 44.7859880964129], [5.226421648335871, 44.7853242740411], [5.224407746566913, 44.7845554801283], [5.223652448237963, 44.784014135747825], [5.222524876295275, 44.78371899161931], [5.221033726300199, 44.7826990016304], [5.220107645025275, 44.78250939187584], [5.219623800965724, 44.78260657487005], [5.218891446227521, 44.782941368694544], [5.2180495066137285, 44.78383461673497], [5.21529119533233, 44.78397613856876], [5.215126616054571, 44.78506014496489], [5.2144374947191094, 44.78585094032722], [5.212686451100476, 44.786414520907485], [5.211784688974762, 44.78648621324698], [5.210895882892902, 44.78714197518527], [5.210531821158617, 44.787715000566784], [5.210239878217101, 44.78943586388727], [5.2098399896578735, 44.789988577132824], [5.20908740242645, 44.79030381346574], [5.204064559277745, 44.790454752893524], [5.2028660399749045, 44.79096446635692], [5.202248714058654, 44.79175776123364], [5.2003152738509995, 44.79234362566482], [5.199073636561507, 44.79297973747394], [5.1984458684073545, 44.79305621190859], [5.197103758518472, 44.79393671375592], [5.193552351892887, 44.794245865840374], [5.193080991924698, 44.794459769416804], [5.192207340343852, 44.79451768196491], [5.191159505836943, 44.79495553786717], [5.1897869001367125, 44.79499580133972], [5.189228316880627, 44.795223347349776], [5.186998588444359, 44.79527092974165], [5.186393205591406, 44.79550445958773], [5.184668598847329, 44.795538456389224], [5.182504511397778, 44.795139399042256], [5.181302116636279, 44.79515798718055], [5.179923468880011, 44.79543428019744], [5.179303488440991, 44.795833826123896], [5.1780068758006665, 44.79616208984023], [5.176447009185855, 44.79726278605929], [5.176812653598771, 44.79926797972109], [5.175966791437483, 44.80024750055004], [5.175644252805664, 44.80098162739147], [5.175661838836666, 44.80221771599066], [5.175081330640373, 44.802802862731106], [5.174896741140085, 44.80401268459676]]]}}, {"type": "Feature", "properties": {"id": "SB12", "commune": "Ombl\u00e8ze", "surface_km2": 10.0, "A1": 2.43, "A2": 85.2, "A3": 3.99, "B1": 0.51, "B2": 0.15, "B3": 1.3, "C1": 3.57, "C2": 5.52, "C3": 2.63, "D1": 24.17, "D2": 1.26, "D3": 2.53, "nom": "la Gervanne (Ombl\u00e8ze)", "n_A1": 52.7, "n_A2": 67.8, "n_A3": 43.8, "n_B1": 14.0, "n_B2": 0.9, "n_B3": 0.0, "n_C1": 1.7, "n_C2": 17.6, "n_C3": 0.0, "n_D1": 43.7, "n_D2": 0.0, "n_D3": 48.6, "f_A": 54.8, "f_B": 5.0, "f_C": 6.4, "f_D": 30.8, "note": 25.4, "rang": 10, "etoiles": 2}, "geometry": {"type": "Polygon", "coordinates": [[[5.206396265065021, 44.86787999554604], [5.206728530635608, 44.8683447475769], [5.206831351883146, 44.87083241341804], [5.207511726931931, 44.87215711547628], [5.207730432264963, 44.87458518534811], [5.207447743751996, 44.8760378796241], [5.207835329202716, 44.87725207334564], [5.207765032527026, 44.87846973965526], [5.208093657030393, 44.87890074286099], [5.208196558103341, 44.881388415741725], [5.208849004463893, 44.882426026106664], [5.209264931892331, 44.883910360807], [5.209887016394315, 44.884657112636546], [5.2099510533129925, 44.88524775226234], [5.210573161763089, 44.885994500561736], [5.21064183225443, 44.88700259278201], [5.211620175372923, 44.88845057140417], [5.211680000075941, 44.88923366575112], [5.212073009884492, 44.88998646808706], [5.213059317825576, 44.89042308629481], [5.214053247969558, 44.89044619332056], [5.2157833599569985, 44.89092826335617], [5.215948136195283, 44.89140114629711], [5.216493051750601, 44.89164630514152], [5.217052077423941, 44.89277052472052], [5.218005391550192, 44.89304656045665], [5.219224298238534, 44.89304508162922], [5.221267373970488, 44.89395479291046], [5.222334612010878, 44.895134932926474], [5.222495947713824, 44.895913158179795], [5.2235486838717256, 44.896146060952425], [5.225456345442542, 44.8975910748137], [5.227946719139821, 44.898455201161006], [5.228971387576876, 44.8984881754484], [5.229664965906975, 44.898722532372986], [5.230531182189751, 44.89930687370804], [5.231029572050922, 44.89928269237898], [5.234651384915525, 44.89724815485128], [5.235456737697218, 44.897130295673506], [5.235789103458975, 44.89661083988844], [5.23674156787936, 44.89589212684561], [5.237407810093602, 44.89565053032237], [5.237658880199444, 44.89520197699098], [5.2381695827888555, 44.89492184156795], [5.2383828617354, 44.891699849487516], [5.23929599037603, 44.8911489509985], [5.239220934930489, 44.889003377804094], [5.239426015373509, 44.88868286067496], [5.239200829597918, 44.88839221033593], [5.239158091266081, 44.88742840782928], [5.239737189942425, 44.88616090159126], [5.23968763958558, 44.88508823528258], [5.239095807017478, 44.884645385731346], [5.23903241451607, 44.88427847009984], [5.239407729720685, 44.8834575318891], [5.240232960056352, 44.883132237134994], [5.240245155143969, 44.882635778230565], [5.240534859963436, 44.88228335593235], [5.240201248243481, 44.88182072128251], [5.240167052866416, 44.88085674853979], [5.240769376310645, 44.88027796222937], [5.240427898289875, 44.87956438514054], [5.2403848728419264, 44.87876101180907], [5.240066545864183, 44.878445795319024], [5.239966069091318, 44.87592811920789], [5.24030027069543, 44.87514559804519], [5.241154119022064, 44.87423144818749], [5.24111844757002, 44.87295638603582], [5.241386511946887, 44.87184628549135], [5.24197438562176, 44.87080376810208], [5.241920485486829, 44.86935857050353], [5.242502528168647, 44.868349648707664], [5.242404924388319, 44.86707178081285], [5.241418118972624, 44.866875902701736], [5.240766890070767, 44.86650167598395], [5.239859535293094, 44.86647013318587], [5.239167042232976, 44.86608360895155], [5.237219035299745, 44.86566200119056], [5.234078642455727, 44.86544763476034], [5.233360177263908, 44.86520278899364], [5.230278192380541, 44.86336649611861], [5.228812544964833, 44.86281541504937], [5.226942218062175, 44.861211046593716], [5.22516715664369, 44.86010938831101], [5.225021426691153, 44.85941519664582], [5.2241270715503685, 44.85853973974175], [5.223337228679021, 44.85732251027246], [5.222555447336017, 44.85706753024346], [5.221823678770775, 44.856334142093694], [5.221029515193393, 44.854541342631975], [5.219757031537543, 44.85293878151935], [5.219647263190945, 44.85207159248873], [5.2185934838050985, 44.851684029574926], [5.2170873929028545, 44.85192113880777], [5.216730322937517, 44.85246658899213], [5.215932434057985, 44.8526203574786], [5.214430344394544, 44.85369513523006], [5.212621607367359, 44.85376989816152], [5.21191758327249, 44.85419558882915], [5.210782685170924, 44.854296200256975], [5.210046266362443, 44.85490838524826], [5.208803473087122, 44.85496376015763], [5.208484348830304, 44.855142160934356], [5.208139862663483, 44.855797315737895], [5.208183358616577, 44.85719180898774], [5.207894316441461, 44.85760357663287], [5.2080225145020655, 44.860991417728165], [5.207728377614315, 44.86143480437551], [5.207517431910358, 44.864410567892406], [5.207234163470874, 44.86478873904149], [5.20721387194779, 44.8653783634424], [5.206655612083262, 44.865902169755344], [5.206396265065021, 44.86787999554604]]]}}, {"type": "Feature", "properties": {"id": "SB03", "commune": "Eygluy-Escoulin", "surface_km2": 8.7, "A1": 1.94, "A2": 74.88, "A3": 0.0, "B1": 0.93, "B2": 0.0, "B3": 12.43, "C1": 11.89, "C2": 5.72, "C3": 5.96, "D1": 9.54, "D2": 1.53, "D3": 4.03, "nom": "Ruisseau de Fonteuse", "n_A1": 35.8, "n_A2": 45.4, "n_A3": 0.0, "n_B1": 33.0, "n_B2": 0.0, "n_B3": 16.8, "n_C1": 21.9, "n_C2": 34.5, "n_C3": 6.5, "n_D1": 1.6, "n_D2": 14.5, "n_D3": 100.0, "f_A": 27.1, "f_B": 16.6, "f_C": 21.0, "f_D": 38.7, "note": 25.3, "rang": 11, "etoiles": 2}, "geometry": {"type": "Polygon", "coordinates": [[[5.150734407664186, 44.78784124345018], [5.151115120239894, 44.78864169833024], [5.150826539448909, 44.78911465422505], [5.150851251252392, 44.78977092676199], [5.151441498228672, 44.790275304128784], [5.151902038252052, 44.791198639339555], [5.1543559145502424, 44.793317318636895], [5.155234449782844, 44.79433775197298], [5.156379519477041, 44.79495182895723], [5.156585759057272, 44.799124595542395], [5.157878824327122, 44.80098704133357], [5.158650408413156, 44.80317017188949], [5.160065753552042, 44.805554350561216], [5.160419163759943, 44.805695944048566], [5.1632556709612585, 44.80564057380024], [5.164397458309206, 44.805183476481915], [5.165775232085825, 44.80506673293316], [5.166602642749881, 44.80572614284003], [5.167719913334417, 44.8060584811652], [5.169162430553702, 44.806877873770034], [5.170037258453856, 44.8068455830435], [5.171129660044803, 44.80639541567341], [5.173211319701018, 44.806322558293594], [5.174748261579162, 44.80496283548376], [5.175085328684275, 44.80293260891225], [5.175666648129307, 44.802346247539255], [5.1756477093380235, 44.801120252915716], [5.175968219091806, 44.800379347668645], [5.176817386407821, 44.799404730773574], [5.176773929632811, 44.79809858857487], [5.17644984285802, 44.797292793430465], [5.178158990798864, 44.7961718054334], [5.179488453805009, 44.795827573312295], [5.180107131363399, 44.79542910259732], [5.181491409870054, 44.795154443930635], [5.183901120877177, 44.79533666145558], [5.184479318594933, 44.79554236720304], [5.186582499670424, 44.795500907647245], [5.187187881698883, 44.79526737676809], [5.189417609833967, 44.79521979057027], [5.189978922940993, 44.79499160728545], [5.191351528401288, 44.79495134143622], [5.192404229210478, 44.79451111280096], [5.193229865510799, 44.79446386683075], [5.193744371854847, 44.7942416652671], [5.197163082623818, 44.793935387411715], [5.198630822499721, 44.793049927175666], [5.1992705192397155, 44.7929731561227], [5.200500225390369, 44.792337337815496], [5.201126681702437, 44.79226192825997], [5.201746467659774, 44.79186226083044], [5.2022883840439125, 44.79176037988406], [5.202919258622006, 44.79097801246345], [5.204261432530283, 44.79044816268687], [5.208761750050985, 44.79046306938129], [5.2098238698591155, 44.79004708395766], [5.210222111033312, 44.78960706617534], [5.210545863249403, 44.78782061216186], [5.210948560653589, 44.7872252727926], [5.211969619964475, 44.78647990628087], [5.212881000040348, 44.786409277758544], [5.214554564253959, 44.78588377561167], [5.215160824478091, 44.78506794052095], [5.215059053782791, 44.783828981660875], [5.214213522497791, 44.78338457793207], [5.212425417643234, 44.78159694115104], [5.211801459893143, 44.78149258604073], [5.211265371467533, 44.78172717245292], [5.210067424002088, 44.781689992063114], [5.209368279198154, 44.78121214954952], [5.208018077121521, 44.77946470889803], [5.207477827559844, 44.779108181160176], [5.204075686705813, 44.77920711066052], [5.2036051723703345, 44.77968232741247], [5.20349622947443, 44.780420971016255], [5.203021063232364, 44.78074238268008], [5.201968153854997, 44.780886371585865], [5.201274474195431, 44.782075241342085], [5.199721234881505, 44.782189829934865], [5.198664196267412, 44.78246907589653], [5.196732314893736, 44.78381212099578], [5.1938679397348935, 44.78340074748699], [5.189801023731291, 44.78192915404787], [5.188962733035434, 44.78195248475751], [5.188179542358339, 44.78224331816302], [5.1869556608010745, 44.78332250411488], [5.185986539383169, 44.78344116627879], [5.183853364139105, 44.78317385514041], [5.182948233637086, 44.78382837803951], [5.182002520529303, 44.7838823832338], [5.1801548200364715, 44.78347706227239], [5.177878103409211, 44.78351316703019], [5.177302828821487, 44.78330795557457], [5.175657955606125, 44.7833316019331], [5.174529530360799, 44.78309319618307], [5.1721535973183, 44.781514141395036], [5.171681909906953, 44.78099157266796], [5.170463301370625, 44.78095214942313], [5.16926799589496, 44.780664664158046], [5.166649105964777, 44.778895735062584], [5.166491635928887, 44.77838750822369], [5.165865574761552, 44.777727935076776], [5.163111985530656, 44.77772291031308], [5.162442150477747, 44.7775126972924], [5.161299545868713, 44.77754147376332], [5.160681201904938, 44.77779113464551], [5.159005422663132, 44.77780297999627], [5.1581759145519, 44.77759754910688], [5.156568918792826, 44.77792895763306], [5.156041760562606, 44.77976526828253], [5.154635572738425, 44.780342533428744], [5.152171173261034, 44.78089058714572], [5.151488636569271, 44.781343028620924], [5.150901287156791, 44.78206857853683], [5.150492940438407, 44.78326329026658], [5.1495169987287115, 44.78399725734145], [5.148816567071085, 44.78410793653004], [5.148477489279108, 44.78434669837763], [5.148157203625754, 44.78570435490358], [5.150734407664186, 44.78784124345018]]]}}, {"type": "Feature", "properties": {"id": "SB04", "commune": "Plan-de-Baix", "surface_km2": 11.0, "A1": 1.2, "A2": 53.99, "A3": 9.1, "B1": 0.73, "B2": 0.0, "B3": 6.87, "C1": 11.4, "C2": 5.72, "C3": 13.11, "D1": 14.85, "D2": 1.99, "D3": 1.66, "nom": "la Gervanne (Plan-de-Baix)", "n_A1": 10.7, "n_A2": 0.0, "n_A3": 100.0, "n_B1": 24.0, "n_B2": 0.0, "n_B3": 8.4, "n_C1": 20.7, "n_C2": 34.4, "n_C3": 20.6, "n_D1": 16.9, "n_D2": 38.5, "n_D3": 18.7, "f_A": 36.9, "f_B": 10.8, "f_C": 25.2, "f_D": 24.7, "note": 25.0, "rang": 12, "etoiles": 1}, "geometry": {"type": "Polygon", "coordinates": [[[5.168656278129833, 44.80885734749459], [5.170014467006957, 44.80915012101719], [5.170442925312358, 44.80941639671201], [5.170956536976283, 44.810328427293854], [5.170371276848948, 44.81093626067449], [5.169749479247532, 44.812130233209814], [5.169230304151337, 44.81585364898223], [5.1684455430336556, 44.81675248524386], [5.171154081928996, 44.81888362939951], [5.1716564704464805, 44.819634585710986], [5.172579296063183, 44.820421752657396], [5.17260881622318, 44.82141667745606], [5.172196212590454, 44.82204301900199], [5.171663595479829, 44.822359002430154], [5.170145567825075, 44.82240962756003], [5.1698280561967085, 44.8226731537436], [5.170001181132191, 44.82739160165187], [5.170346680942797, 44.82814467357219], [5.17005131599725, 44.82862774989257], [5.170117858030412, 44.830350308689134], [5.170798045909582, 44.83186884528482], [5.1708629835630955, 44.833071216077386], [5.171877110125941, 44.83522523701968], [5.171955141782059, 44.83646015560461], [5.1729185396796655, 44.83787590439324], [5.173342065103248, 44.83916680724323], [5.175606975859656, 44.842296470114384], [5.176488191973316, 44.84423832716154], [5.177181831420752, 44.84430847034078], [5.179171764271603, 44.84362289230761], [5.180349207948195, 44.84356023742035], [5.181051834443192, 44.84313561610283], [5.182468808717686, 44.84308716699589], [5.18302789527395, 44.842859651410095], [5.184165891602283, 44.84284174960514], [5.184744579233204, 44.84304745722149], [5.187517337934055, 44.842988036399696], [5.188266250630174, 44.8425535640148], [5.1891383412728835, 44.84249704347418], [5.189680902671139, 44.84224676157245], [5.190193194716035, 44.841605657336196], [5.192770215615558, 44.84109136560975], [5.195771008348873, 44.841003324070655], [5.196934829325831, 44.84051573816766], [5.199162607909134, 44.838973707495], [5.2019406251631635, 44.838557249431595], [5.202370219510611, 44.83656056317206], [5.202753223764852, 44.836037218327505], [5.2038557272525905, 44.83547958440702], [5.206933643885154, 44.835406464364596], [5.209012425279375, 44.835991507476265], [5.209481597625172, 44.83590733818527], [5.209849357979571, 44.835486677781084], [5.210187051669951, 44.834153413331464], [5.211605334472956, 44.83281459865153], [5.2123152152878784, 44.831381308054574], [5.212984316886202, 44.83065469094374], [5.214007982946943, 44.83008040303923], [5.21414137900527, 44.829543511222056], [5.21608421440306, 44.827420688341206], [5.2150383115751255, 44.82682499520692], [5.214637636912867, 44.826341471242074], [5.213088174566855, 44.82551289777871], [5.212836960170014, 44.82513169399261], [5.211397492297996, 44.824145382292805], [5.210706523810766, 44.82323083548616], [5.210300516155513, 44.822216655381666], [5.210202655754723, 44.82033815751231], [5.20892049584185, 44.81850885263251], [5.208219531744206, 44.817141681609755], [5.208155590619426, 44.81655105399071], [5.206882420325208, 44.81494672073127], [5.20612646787152, 44.813213903263915], [5.205339375666544, 44.8120903065944], [5.204087687262622, 44.811761130537285], [5.203359659450925, 44.81116384273287], [5.202511206791132, 44.81139749638757], [5.201373852952185, 44.81141558610678], [5.200747890805754, 44.811209213318676], [5.199982613399774, 44.81144768669699], [5.1984854415955235, 44.8114654404763], [5.195823550075403, 44.81003626034815], [5.195099943975623, 44.8101953131674], [5.194421238338986, 44.80998527541327], [5.1926809942332595, 44.81001800028808], [5.192028070083454, 44.81025419680638], [5.1897267785330925, 44.81030153964186], [5.189095284240346, 44.81009561267811], [5.187634872659275, 44.81009351556751], [5.18623520387904, 44.80962353577682], [5.184445604554789, 44.80843611577304], [5.183619467741719, 44.80830337002788], [5.181418750653001, 44.80638964569204], [5.180687630038738, 44.80610940088837], [5.180071116461423, 44.80557914671005], [5.176533286830904, 44.804263395691436], [5.174978485431844, 44.80436379603135], [5.174117860240713, 44.80554405760217], [5.173067827986668, 44.80631381602808], [5.170937596884596, 44.806399577104976], [5.169842634817636, 44.80685075105383], [5.168901242741214, 44.806939902863796], [5.1680281225338245, 44.80760828958516], [5.167998201175484, 44.80828484689441], [5.168656278129833, 44.80885734749459]]]}}, {"type": "Feature", "properties": {"id": "SB06", "commune": "Ombl\u00e8ze", "surface_km2": 6.1, "A1": 2.25, "A2": 79.87, "A3": 6.52, "B1": 0.42, "B2": 0.0, "B3": 1.39, "C1": 2.86, "C2": 5.32, "C3": 7.04, "D1": 10.85, "D2": 1.51, "D3": 1.84, "nom": "la Gervanne (Ombl\u00e8ze)", "n_A1": 46.6, "n_A2": 56.2, "n_A3": 71.7, "n_B1": 9.6, "n_B2": 0.0, "n_B3": 0.1, "n_C1": 0.0, "n_C2": 0.0, "n_C3": 8.6, "n_D1": 5.4, "n_D2": 13.2, "n_D3": 25.0, "f_A": 58.2, "f_B": 3.2, "f_C": 2.9, "f_D": 14.5, "note": 21.9, "rang": 13, "etoiles": 1}, "geometry": {"type": "Polygon", "coordinates": [[[5.189663171524154, 44.842722723070615], [5.191562147091874, 44.844284195528], [5.191093936622336, 44.8454100833506], [5.1923946365015565, 44.846428406860205], [5.193385568275157, 44.846699798885595], [5.1957618466004565, 44.84689856229299], [5.196803429078904, 44.84712656673498], [5.197498412741965, 44.8475113388315], [5.1999513663385555, 44.84772659452122], [5.200846248482638, 44.848328670759585], [5.200955730984025, 44.85032354702048], [5.200395198349843, 44.851864570880544], [5.200423435715571, 44.85332379792874], [5.199577682334429, 44.854518229192976], [5.1995055707357665, 44.85497731214704], [5.198348440747127, 44.856183383336884], [5.1985154117765875, 44.86044781436848], [5.198827873404887, 44.860814161347726], [5.198896486923216, 44.86181522850681], [5.199494918670544, 44.86231607796337], [5.199934929825604, 44.86363669319505], [5.201447279741512, 44.8646976167234], [5.201576601522375, 44.86517088954052], [5.202138607662464, 44.86561223351988], [5.202959039916414, 44.867005224732814], [5.204302502065902, 44.86764184725772], [5.2060468821537516, 44.867615607752924], [5.2066447764120705, 44.86710626645432], [5.206659687573582, 44.866031917474565], [5.207216813738786, 44.86550922762125], [5.207248218632591, 44.864894353744745], [5.20752224498284, 44.86454732055414], [5.207733932094908, 44.861569580112864], [5.208028069644696, 44.86112619343166], [5.207899870941357, 44.85773835219628], [5.208188172691896, 44.85732856130435], [5.20814541757397, 44.85593209121075], [5.208507654425797, 44.8551134932119], [5.210230120538384, 44.854903157657446], [5.21086161989076, 44.85428101471246], [5.212058034189441, 44.8542023896569], [5.212803954309284, 44.853765534385225], [5.214694992721544, 44.85365707606567], [5.216118641663232, 44.85261277867986], [5.2170767838960135, 44.85241709319476], [5.217223156763122, 44.85153404848656], [5.218327159896031, 44.851047489161814], [5.2192344252496525, 44.850241422286615], [5.219346721994385, 44.84973258377328], [5.219753931080968, 44.8494060430083], [5.221106641243573, 44.84865620986868], [5.222683842446749, 44.848560604948965], [5.2252084813408, 44.84693454514858], [5.226958949230834, 44.84440842250206], [5.227917107357208, 44.84235532360738], [5.228443211602049, 44.8418922673239], [5.228474370973723, 44.84127739214994], [5.229036029751825, 44.84050698487556], [5.229356021938259, 44.83920301413314], [5.230268374782241, 44.83780463675944], [5.230928158990499, 44.8370749828982], [5.232310464804165, 44.83609787595132], [5.232925003178526, 44.8345414979688], [5.232905104158461, 44.83403091897027], [5.232567382709761, 44.83378039443324], [5.231206108994155, 44.83363906957867], [5.229250624063208, 44.833832546884594], [5.228571505298143, 44.833622716456844], [5.223954478684496, 44.83367640422213], [5.222739450938618, 44.83289424800149], [5.221687180867588, 44.83243377874512], [5.22097861353345, 44.832350862893016], [5.219326142296884, 44.8312427093247], [5.217928040487483, 44.82984178960322], [5.21679573337046, 44.82802258433839], [5.216404963675407, 44.82766842387491], [5.216013788509656, 44.82761215781657], [5.2153786928502175, 44.82800823136599], [5.2141415766925485, 44.82941083983551], [5.213983465308965, 44.829974253830216], [5.212293025543471, 44.831273837957966], [5.211302938466257, 44.83311231888863], [5.210185542858407, 44.83402156518184], [5.209832494735056, 44.8353784315445], [5.209389930918586, 44.83576333761306], [5.2086154655610315, 44.83580764364812], [5.207123056865285, 44.83540251517301], [5.203630050857497, 44.835495961607315], [5.2027335390639085, 44.836000772857865], [5.202351187831982, 44.83644956880977], [5.2023366211121775, 44.837267774632586], [5.201870059584819, 44.838600315366854], [5.198977502689805, 44.838979993211034], [5.197323620629907, 44.83997080865378], [5.196917395421039, 44.840480129594766], [5.195573956935958, 44.84100989931382], [5.192580768311673, 44.8410949281662], [5.190032199917197, 44.84167056838812], [5.189663171524154, 44.842722723070615]]]}}]}